{"type":"Topology","arcs":[[[20480,19744],[109,-62],[7,-54],[-161,-192],[-49,-5],[29,-231],[-39,-37],[-37,-16]],[[20339,19147],[-28,-6],[-29,20],[-41,6],[-46,8]],[[20195,19175],[-77,212],[1,83],[7,236],[85,-10],[39,60],[73,-8],[-41,76],[-31,-1],[-31,-63],[-68,37],[55,84],[45,5],[242,153],[37,-79],[-51,-216]],[[20909,19470],[1,-28],[31,-22],[-23,-26],[-22,17],[-24,-12],[-25,-55],[16,-70],[-57,-170],[-108,39],[18,77],[-48,84],[-1,106],[52,71],[75,-10],[34,89],[66,-10],[3,-47],[12,-33]],[[20607,19214],[-14,-53],[-69,2],[-23,0],[-99,157],[51,64],[118,-7],[36,-163]],[[21388,19265],[-11,-32],[-26,0],[-49,38],[11,48],[33,-17],[42,-37]],[[23019,16240],[-10,-123],[157,-46],[1,-1],[108,22],[59,-119]],[[23334,15973],[-23,-59],[-14,-99],[76,-101],[19,-2],[70,-51],[-44,-106],[-53,-16],[-15,-17],[13,-56],[-7,-111]],[[23356,15355],[-178,-45]],[[23178,15310],[6,44],[13,102],[-39,-1],[-43,44],[-130,69],[-30,37],[-89,-156]],[[22866,15449],[-74,46],[-214,141]],[[22578,15636],[54,43],[-13,148],[-92,93],[29,155],[-72,-20]],[[22484,16055],[16,88],[62,23],[-84,46],[-19,28],[4,17],[-47,136]],[[22416,16393],[88,33],[79,75],[38,-8],[60,3],[29,2]],[[22710,16498],[101,-94],[99,-138],[109,-26]],[[23289,20776],[112,-241],[-11,-157]],[[23390,20378],[-152,-25],[-268,100],[-30,-29],[-74,-47]],[[22866,20377],[-1,137],[-91,-19],[-90,77],[-36,177],[28,38],[311,175],[25,24],[126,-10],[204,42],[22,-33],[-75,-209]],[[22583,20650],[-5,-79],[49,12],[5,-57],[-92,-121],[-63,-4],[-49,74],[80,81],[-1,138],[76,-44]],[[24306,15022],[-103,21],[-124,16],[-69,-58],[-18,-70],[-56,71],[-147,-70],[-23,-11],[4,-39],[-8,-107],[-80,-46],[-77,30],[-86,43],[-3,-12],[-10,-105],[35,-59],[79,-108],[54,-62],[-12,-135],[-32,-58],[156,-66],[22,-5],[-4,83],[151,-57],[-10,-40],[-81,-23],[9,-2],[80,-20],[5,-46],[35,-119],[-82,33],[-22,25],[-23,20],[-34,-4],[-67,-35],[-4,-73],[25,-41],[31,12],[-9,48],[30,5],[11,-97],[-150,-30],[60,-119],[13,-100],[-145,-30],[-89,54],[-64,-49],[-58,175],[-58,61],[-81,75],[26,82],[120,77],[133,-24],[189,6],[-3,34],[-60,6],[-78,32],[-139,-12],[-50,-14],[-159,-31],[-130,145],[77,71],[-100,-13],[-65,63],[-130,117]],[[22908,14437],[66,48],[23,-4],[-10,61],[52,39],[29,91],[56,95],[-28,74]],[[23096,14841],[190,53],[26,60],[65,33],[30,-11],[119,92],[11,1]],[[23537,15069],[123,43],[40,-1],[95,65],[100,27],[79,-44],[96,3],[13,-12],[158,47],[9,7],[71,144]],[[24321,15348],[73,-79],[-88,-247]],[[24183,13240],[155,47],[150,-5],[192,-1],[-17,-48],[-142,-44],[-173,-47],[-47,36],[-116,4],[-171,-8],[-28,31],[18,46],[112,42],[67,-53]],[[24543,14056],[98,15],[-21,50],[65,40],[43,-31],[-60,-105],[-105,-10],[-20,41]],[[24477,14603],[33,-51],[-2,-60],[-66,-5],[-11,57],[-29,-37],[-47,24],[10,27],[112,45]],[[25098,13688],[-43,-74],[-35,-7],[-18,58],[-8,46],[90,63],[14,-86]],[[24416,13865],[22,-75],[-49,-19],[-29,48],[-43,-46],[-40,21],[20,60],[119,11]],[[24482,14266],[-26,-58],[-29,26],[10,47],[-47,40],[38,28],[42,-7],[12,-76]],[[23056,13979],[27,74],[45,14],[16,-125],[-88,37]],[[24109,14125],[-36,-74],[-88,43],[26,36],[98,-5]],[[23831,13504],[-5,-111],[-57,27],[-14,71],[76,13]],[[24457,13636],[-20,-64],[-88,57],[56,53],[52,-46]],[[23217,13853],[-16,-48],[-89,58],[27,61],[78,-71]],[[23860,14749],[20,-77],[-69,-1],[-34,70],[83,8]],[[24238,14084],[-8,-82],[-91,48],[43,55],[56,-21]],[[24259,14892],[-52,-36],[-31,42],[12,56],[55,-2],[16,-60]],[[23938,14377],[-45,-40],[-36,61],[72,71],[9,-92]],[[23154,14137],[-84,-55],[8,96],[35,34],[41,-75]],[[22881,14392],[-37,-6],[-53,64],[56,33],[36,-20],[-2,-71]],[[24162,14771],[25,-96],[-77,4],[-12,58],[64,34]],[[23313,13688],[-74,-42],[-50,39],[92,58],[32,-55]],[[16535,15961],[270,-39],[290,-132],[261,-45],[47,-27],[88,10],[70,-43],[77,-13],[53,-6],[25,-2]],[[17716,15664],[3,-6],[8,-13],[65,-23],[150,-133],[92,-36],[178,-72],[42,-9],[22,16],[29,22],[106,-54],[23,-34]],[[18434,15322],[8,-43],[55,4]],[[18497,15283],[1,-4],[337,-53]],[[18835,15226],[-36,-153],[-79,-89],[-284,-117],[-179,-49],[-52,-59],[-64,-74],[-201,-232],[-40,-106],[45,-165],[39,-63],[-156,-85],[-103,-157],[-238,-117],[-48,-56],[-33,-38],[-63,-72],[-176,20],[-87,11],[-63,9],[-102,16],[-155,17],[-242,-78],[-30,-46],[-4,1],[-4,2],[-13,6],[-11,-29],[-41,-10],[-47,32],[-23,36],[-32,12],[-66,171],[-1,22],[24,14],[-128,147],[-112,32]],[[16030,13979],[-5,116],[27,49],[159,132],[-45,4],[-24,93],[37,89],[61,72],[-34,96],[-50,138],[133,-7],[47,161],[22,-1],[31,78],[2,165],[68,42],[55,17],[61,85],[-59,114],[-76,41],[-56,-17],[-200,29],[-27,6],[16,108],[-173,-50]],[[16000,15539],[52,140],[39,108],[-57,-4],[-30,124],[24,27],[47,52],[86,-2],[72,-1],[165,75],[17,-25],[120,-72]],[[18572,14335],[99,74],[62,19],[24,-53],[49,0],[23,-43],[-62,-88],[-46,-26],[-61,37],[-33,67],[-30,-31],[-25,44]],[[13012,11881],[-88,-16],[-30,126],[114,-19],[69,30],[22,-25],[-87,-96]],[[13272,11690],[-72,-19],[-47,100],[55,45],[77,-28],[-13,-98]],[[13702,11675],[-95,20],[88,109],[58,42],[6,-64],[-57,-107]],[[12695,12130],[-43,-2],[-16,108],[82,-5],[-23,-101]],[[13887,11871],[-109,-13],[-15,32],[14,27],[115,4],[-5,-50]],[[12616,11927],[-72,-70],[-64,73],[124,22],[12,-25]],[[18350,14182],[-55,-71],[-60,30],[35,62],[80,-21]],[[19066,14379],[-51,-17],[-65,70],[64,29],[52,-82]],[[12850,11915],[-78,-14],[-36,59],[58,47],[56,-92]],[[16472,13467],[2,-5],[3,1],[2,-4],[4,1],[1,2],[3,1],[2,-3],[0,-1],[-3,-1],[-5,-1],[-3,1],[-3,-1],[-2,0],[-2,-2],[-7,15],[1,1],[3,-1],[4,-3]],[[17060,13153],[1,-2],[-9,7],[6,7],[1,-2],[0,-2],[3,-5],[-1,-1],[-1,-2]],[[22596,24020],[4,-177],[43,-79],[38,-18],[172,-120],[-35,-230],[83,-124],[25,-32],[127,-185],[-14,-97],[50,-183],[61,-39],[21,-59],[12,-33],[83,-69],[2,-103],[-32,-42],[207,-105],[91,-95],[-5,-140],[-86,-241],[-211,-458],[-18,-45],[-43,-53],[-109,-33],[-48,15],[-420,-294],[-74,-11],[-14,62],[-65,-55],[-65,78],[-125,-59],[-67,210],[24,89],[-1,161],[-63,126],[-72,236],[-10,117],[214,291],[69,79],[59,176],[19,80],[-24,94],[35,14],[29,-71],[41,35],[-72,198],[-60,12],[-76,33]],[[22296,22876],[-81,134],[-29,179],[-134,361],[-394,268]],[[21658,23818],[45,64],[27,28],[33,-4],[14,-12],[43,-45],[150,-101],[102,55],[122,-19],[46,116],[-13,249],[151,149],[194,-103],[24,-175]],[[22122,20971],[-62,-29],[-102,47],[9,33],[78,16],[43,-1],[34,-66]],[[22392,20917],[-28,-40],[-24,46],[-20,40],[47,17],[25,-63]],[[22190,21102],[3,-63],[-56,0],[13,88],[40,-25]],[[19005,17887],[1,-2],[4,1],[2,-4],[2,0],[1,3],[2,-1],[2,3],[0,5],[2,1],[1,0],[-1,3],[1,2],[3,2],[2,-1],[1,-1],[3,2],[4,3],[2,1],[0,1],[1,0],[16,0],[28,-24],[24,-56],[44,-22],[8,-10],[14,-35],[58,-5],[14,-124],[18,-8],[41,-8],[78,60],[28,-113],[37,-30],[47,-36],[14,-39],[55,12],[17,-1]],[[19579,17466],[15,-17],[98,-14]],[[19692,17435],[38,-18],[32,-66],[78,-24],[34,-8],[22,8],[54,-37],[58,-4],[33,-16],[34,-11],[-60,-79],[-63,-147],[-23,-43],[0,-1],[-1,-65],[-10,-55],[8,-50]],[[19926,16819],[-8,-8],[-10,-19],[-29,-22],[-53,25],[-42,-21],[-21,-85],[0,-1],[-90,-97],[-76,-91],[-18,-44],[12,-33],[-41,-57],[50,13],[17,51],[50,26],[78,-5],[43,-164]],[[19788,16287],[-55,-44],[63,-103],[4,-65],[-115,-46],[94,-131],[-28,-18],[-17,-94],[186,-103],[-45,-88]],[[19875,15595],[-21,-10],[-1,0],[-6,-5],[0,-1],[1,-1],[-115,-75],[-113,-99],[-184,17],[-329,113],[-28,32],[-130,-58],[-37,-16],[-41,-18],[-56,-116],[-2,-48],[22,-84]],[[18497,15283],[16,21],[-79,18]],[[17716,15664],[68,48],[104,289],[69,298],[90,-42],[-74,164],[20,169],[-126,86],[-17,42],[-20,48],[20,77],[-81,151],[-64,49],[-71,-27],[-45,96],[-23,50],[-167,43],[9,89],[-47,88],[60,62],[162,-19],[63,12],[56,10],[58,-79],[172,-45],[83,15],[4,291],[77,18],[45,-101],[296,-8],[72,-5],[12,19],[12,2],[0,1],[0,1],[-128,22],[39,57],[103,32],[136,47],[64,85],[-4,78],[23,86],[89,37],[99,16]],[[18954,18016],[6,-58],[45,-71]],[[939,10829],[-394,-207],[-154,1],[-184,219],[-128,67],[-79,158],[97,9],[195,201],[1,344],[143,207],[118,30],[50,-12],[161,-261],[54,-154],[140,-393],[-20,-209]],[[20119,15135],[188,134],[-5,-301],[-12,-40],[-27,-83],[-61,13],[-21,71],[-37,120],[-25,86]],[[36775,116],[-21,-65],[-150,-51],[-43,51],[80,91],[68,22],[66,-48]],[[613,16734],[-65,-6],[38,114],[75,-51],[46,18],[-17,-112],[-77,37]],[[458,16095],[-42,22],[14,157],[66,-82],[-38,-97]],[[33120,918],[-26,-110],[-77,8],[24,80],[79,22]],[[667,16550],[-78,8],[7,95],[64,3],[7,-106]],[[22145,16338],[59,-12],[197,63],[15,4]],[[22484,16055],[-43,0],[-26,45],[-50,16],[-116,1],[-39,-27],[-91,23],[-67,-6],[-197,-49],[-97,43],[-16,-95],[101,-147],[15,-78],[65,-48],[26,-20],[231,-235],[179,-139],[71,-35]],[[22430,15304],[25,-41]],[[22455,15263],[-147,70],[-73,57],[-17,15],[-57,41],[-104,70],[-218,36],[-118,105],[-51,25],[1,-11],[0,-1],[0,-11],[0,-1],[1,-2],[0,-5],[1,-10],[0,-9],[-25,24],[-48,82],[50,78],[-77,54],[-15,44],[-11,109],[-78,-39],[-72,69],[-82,-90],[-74,142],[22,38]],[[21263,16143],[103,15],[1,-1],[61,11],[37,57],[151,-69],[16,109],[16,11],[63,64],[-20,34],[32,58],[17,8],[92,40],[-16,35],[78,2]],[[21894,16517],[60,-35],[6,-9],[101,-98],[34,-9],[50,-28]],[[21821,15378],[-51,-23],[-49,23],[21,21],[73,37],[36,-13],[-30,-45]],[[22013,15177],[-70,-13],[-52,35],[29,34],[61,-3],[32,-53]],[[22158,15408],[-8,-36],[-70,-5],[-16,28],[22,44],[42,7],[30,-38]],[[23002,17278],[6,9]],[[23008,17287],[179,-116]],[[23187,17171],[-133,-139],[-11,-2],[-71,-200],[-30,-126],[-49,-111],[-78,-31],[-10,-39],[-95,-25]],[[21894,16517],[-56,75],[-60,42]],[[21778,16634],[71,63],[-14,98],[43,35],[-54,66],[120,28],[28,96]],[[21972,17020],[18,3],[106,-71],[41,-2],[200,49],[-22,29],[30,50],[18,9],[215,57],[74,107],[194,58],[156,-31]],[[17280,19371],[58,-17],[28,-56],[-1,-45],[64,4]],[[17429,19257],[-24,-150],[13,-53],[-23,-86],[-41,-147],[-101,-148],[-278,-21],[-372,-50],[-93,114],[55,146],[174,65],[27,121],[87,34],[-142,104],[-30,91],[39,57],[-2,81],[69,64],[129,-71],[158,63],[-26,76],[106,122],[179,14],[-9,-79]],[[17324,19604],[-94,-75],[5,-45],[-73,-84],[63,-67],[55,38]],[[16115,23148],[88,60],[56,-8],[-82,60],[-47,161],[151,158],[-122,74],[-2,81],[238,94],[68,-89],[14,-232],[167,73],[323,-107],[219,35],[95,-161],[48,-188],[-11,-111],[-69,-107],[-200,-121],[-521,-67],[-236,129],[-182,211],[5,55]],[[20932,16650],[-4,-55],[60,-68],[47,-6],[9,-7],[170,-15],[47,-12]],[[21261,16487],[-5,-27],[-37,-31],[1,-96],[26,-73],[0,-4],[43,-19],[28,-33],[-15,-16],[-25,1]],[[21277,16189],[-35,60],[-27,-28],[-23,9],[-55,-31],[-191,-110],[24,-52],[19,-118],[-28,-53],[30,-130],[16,-19],[71,-60],[100,-66],[112,-84],[26,-57],[1,-1],[2,-4],[1,-3],[2,-4],[1,-2],[1,-3],[1,-1],[4,-12],[3,-8],[2,-3],[2,-6],[3,-5],[3,-8],[1,-3],[1,-4],[0,-5],[19,-54],[26,-65],[34,-49],[26,-26],[131,-112],[88,-41],[217,10],[2,-56],[3,-98],[129,-53],[213,-88],[129,-55],[53,-48],[92,-97],[-16,-99],[-57,12],[-93,105],[-221,12],[-47,-94],[-16,-130],[126,-65],[32,-136],[-51,-44],[-34,-18],[-40,-59],[9,-76],[-176,-188],[-50,64],[59,122],[66,103],[-35,73],[-103,273],[-30,36],[-137,34],[-85,120],[-73,19],[-113,76],[-70,100],[-240,52],[-114,98],[-141,132],[-68,69],[-178,179],[-95,205],[-10,75],[-27,51],[-29,22],[-116,56],[-200,55],[-117,-139],[-141,-46]],[[19788,16287],[182,-8],[3,3],[117,166],[70,-116],[43,-86],[56,108],[20,21],[22,76],[155,-45],[27,79],[62,-15],[3,104]],[[20548,16574],[112,-14],[39,51],[100,18],[50,-2],[61,26],[22,-3]],[[21008,14984],[7,-4],[30,4],[-7,24],[-14,-5],[-16,-19]],[[21019,15635],[-6,21],[-3,-25],[0,0],[2,-1],[2,1],[4,0],[1,4]],[[21503,13767],[290,65],[-14,-116],[-34,-146],[45,-87],[-56,-123],[-111,14],[-65,71],[-78,29],[-297,137],[-65,17],[-27,92],[107,39],[61,52],[244,-44]],[[20326,14110],[-227,-69],[-61,37],[9,120],[29,85],[-6,156],[-16,67],[-38,125],[139,41],[141,83],[88,-173],[-30,-147],[5,-208],[-33,-117]],[[21010,13364],[-50,-69],[-62,85],[24,26],[88,-42]],[[20363,16670],[-3,-30]],[[20360,16640],[-29,-2],[12,70]],[[20343,16708],[20,-38]],[[22716,19860],[44,-15],[178,10],[113,62],[190,-63],[47,-25],[121,-59]],[[23409,19770],[51,-127],[-9,-36],[-57,-23],[-12,-46],[-38,-26],[-22,-57],[13,-69],[11,-125],[-149,-47],[-52,-83],[-178,-27]],[[22967,19104],[-53,87],[-103,17]],[[22811,19208],[-21,149],[-56,70],[-175,6],[-51,20],[-20,-11],[-73,207],[-6,50]],[[22409,19699],[144,127],[115,15],[48,19]],[[19655,17650],[64,-103],[-23,-86],[-4,-26]],[[19579,17466],[-9,100],[63,103],[22,-19]],[[23458,20346],[177,-356],[-67,-116],[-159,-104]],[[22409,19699],[-34,229],[69,259],[122,75],[134,-103],[72,-76],[81,3],[26,32],[29,82],[-42,177]],[[23390,20378],[68,-32]],[[22866,15449],[-53,-97]],[[22813,15352],[-54,-36],[-43,20],[-35,-54],[-18,-34],[5,-61],[6,-84]],[[22674,15103],[-219,160]],[[22430,15304],[42,199],[106,133]],[[23538,15128],[-1,-59]],[[23096,14841],[-37,18],[-64,44],[-32,68],[2,86],[-5,49],[-5,36],[7,11]],[[22962,15153],[67,85],[68,10],[49,48],[32,14]],[[23356,15355],[43,-43],[33,-11],[57,-17],[28,-90],[21,-66]],[[21655,13109],[-51,-72],[-55,49],[43,62],[63,-39]],[[21576,13135],[-22,-9],[-24,19],[15,7],[31,-17]],[[22296,22876],[10,-39],[-160,-38],[-50,-102],[-43,9],[-51,-133],[-36,-101],[31,-68],[8,-103],[-120,-212],[-113,-69],[-104,-162],[1,-53],[-116,-173],[12,-70],[-11,-97],[27,-50],[-30,-167],[49,-163],[223,-111],[75,-162],[-43,-219],[-102,-91],[-61,41],[-22,-80],[-102,-38],[48,-144],[-43,-60],[24,-143],[-26,-143],[57,-100],[-33,-142],[-45,64],[-34,-84],[-42,-74],[-219,-30],[-58,-201],[-176,-27],[-101,205],[37,133],[-182,353],[-76,134],[-55,215],[1,103],[40,6]],[[20685,20490],[28,-19],[15,39],[16,62],[11,178],[-14,16],[49,17],[44,62],[17,116],[-49,176],[57,24],[-1,120],[-82,107],[12,161],[-7,21],[-39,273],[12,76],[6,64],[42,76],[85,76],[121,6],[8,100],[-41,50],[-16,20],[71,168],[19,305],[100,98],[-9,50],[100,189],[-33,115],[53,152],[58,72],[53,-13],[41,39],[-9,127],[217,-20],[15,208],[23,17]],[[21954,20030],[-84,-110],[-3,55],[-26,36],[12,41],[-19,46],[48,98],[42,40],[61,12],[-7,-64],[-31,-34],[7,-120]],[[21263,16143],[14,46]],[[21261,16487],[160,-16],[30,-21],[22,26],[82,71],[73,6],[53,20],[30,3],[43,45],[24,13]],[[22397,17591],[103,-120],[48,31],[93,59],[159,29],[258,-70]],[[23058,17520],[-26,-78],[-2,-53],[-26,-46],[4,-56]],[[21972,17020],[-23,34],[-21,15],[-34,83],[18,33],[-5,26]],[[21907,17211],[90,73],[51,18],[125,164],[14,28],[87,50]],[[22274,17544],[60,-25],[63,72]],[[26420,15935],[92,55],[124,-85],[97,45],[103,-27],[234,26],[225,133],[263,83],[162,193],[41,87],[219,74],[50,65],[195,-59],[8,-20],[85,-59],[72,-198],[173,40],[123,-41],[20,-19],[-79,-10],[6,-93],[-59,-62],[215,-276],[17,-124],[55,-16],[90,-92],[64,-58],[-91,-95],[-72,49],[-160,-80],[-138,-32],[-88,-135],[-60,17],[-99,-92],[-209,-96],[-104,-114],[-214,-169],[-296,-60],[-96,-87],[-99,-47],[-130,4],[-5,-1],[44,-179],[-64,-156],[-74,-9],[-55,114],[46,143],[-71,46],[-90,-142],[-152,1],[-128,-87],[-135,-199],[-251,-100],[-221,99],[-266,13],[-48,-32],[-28,-174],[-139,-83],[-140,7],[-220,110],[-138,-71],[-10,77],[-142,9],[-25,112],[-45,15],[-20,117],[-224,87],[65,178],[-45,116],[-13,106],[-46,3],[-84,-37],[-39,36],[-24,94],[38,146],[272,49],[150,66],[162,37],[28,35],[-9,39],[120,69],[-54,21],[-105,17],[25,107],[177,14],[110,44],[154,7],[69,35],[137,198],[74,74],[55,57],[129,95],[198,49],[168,78],[111,-56],[39,-19]],[[24748,15220],[-96,-43],[-113,-161],[-61,15],[-172,-9]],[[24321,15348],[34,78],[85,44],[19,34],[232,21]],[[24691,15525],[35,-74],[21,-46],[8,-3],[174,-48],[23,-99],[-204,-35]],[[24352,14835],[-59,-49],[-51,32],[87,77],[23,-60]],[[18439,18208],[5,7]],[[18444,18215],[16,-10],[47,-8],[2,-3],[2,-1],[1,-1],[2,-2],[4,-3],[1,0],[2,0],[4,3],[1,-1],[2,-5],[2,-1],[3,-1],[3,0],[7,-2],[4,0],[1,1],[1,-1],[1,1],[3,1],[27,0],[3,-30],[23,-6],[40,-11],[63,-9],[11,-39],[-88,-87],[-22,2],[-22,-2],[-161,-14],[-34,14],[-145,21],[-20,-4],[-34,6],[-27,28],[-6,4],[-66,-39],[-11,-3],[-9,1],[-21,2],[-15,2],[-163,29],[-32,6],[-90,-17],[-33,-26],[-2,-28],[-16,-12],[-52,-32],[-51,42],[-17,10],[4,18],[-10,16],[-208,-93],[-59,39],[231,211],[180,65],[67,-21],[26,-8],[55,29],[65,49],[10,12],[34,37],[-28,-7],[-25,-9],[-63,-20],[-64,-25],[-47,35],[-39,56],[-27,34],[-182,15],[-34,60],[291,190],[-55,153],[83,70],[124,6],[50,-36],[-3,14],[10,33],[25,-36],[27,-3],[-7,7],[-1,2],[-27,38],[-3,43],[28,38],[33,3],[-22,45],[20,37],[13,64],[-56,-16],[-47,160],[48,79],[53,25],[14,16],[-60,-6],[-224,-21],[-87,58],[17,45],[57,96],[49,70],[-29,49],[9,56],[22,21],[40,-18],[1,4],[-21,26],[4,66],[-129,-188],[-103,-37],[78,280],[-65,104],[60,43],[65,159],[46,35],[19,134],[120,154],[207,-20],[-158,-267],[186,6],[100,4],[136,-103],[-126,-207],[-22,-34],[-36,-34],[-68,-7],[-45,-27],[54,-23],[2,-2],[2,-4],[1,-5],[0,-6],[-1,-5],[-2,-5],[-3,-4],[-3,-3],[-87,-42],[-2,0],[-1,0],[-1,0],[1,-1],[0,-2],[0,-2],[-1,-1],[-1,1],[-1,0],[-1,2],[0,1],[-5,3],[-1,-1],[0,0],[-1,1],[0,2],[-5,3],[-3,0],[-2,3],[-2,0],[-3,1],[-1,1],[-1,2],[-2,4],[-2,0],[0,-1],[-1,-2],[0,-1],[-1,0],[-2,1],[-1,2],[-1,1],[-5,0],[-4,-1],[-3,1],[-3,3],[-3,5],[-1,3],[-2,1],[-1,1],[-1,1],[-2,4],[-2,4],[-2,2],[-2,1],[-3,-3],[0,1],[0,1],[1,0],[0,2],[-1,1],[-2,2],[-1,0],[-1,-1],[0,-2],[-1,-1],[1,0],[0,0],[1,1],[0,2],[1,-1],[2,-1],[-1,-2],[0,-2],[1,-1],[2,0],[17,-28],[30,-13],[15,-6],[58,-27],[125,-23],[51,-53],[20,-36],[15,-27],[22,-41],[1,-71],[5,-77],[11,-44],[-1,-27],[12,-47],[-1,-47],[75,-18],[87,-146],[-4,-58],[17,-71],[-46,7],[-25,-11],[-53,-4],[55,-5],[71,-65],[36,-101],[-44,-99],[24,-36],[96,23],[40,9],[72,-24],[59,-63],[5,-69],[-59,-136],[-95,-35],[-30,-67],[-42,-13],[-32,-11],[-2,-36],[-18,6],[-29,-19],[-32,14],[-21,11],[-18,0],[-17,3],[-6,1]],[[18444,18215],[-1,1],[-8,-7],[-18,3],[3,-6],[19,2]],[[17324,19604],[17,-13],[47,31],[136,2],[26,-78],[-7,-121],[-9,-9],[17,-3],[47,-11],[-1,-79],[-14,-15],[-11,35],[-9,-48],[-82,-63],[-52,25]],[[17529,20363],[-63,-119],[-14,13],[36,86],[8,87],[72,29],[3,67],[50,66],[124,42],[4,-58],[-49,-81],[-99,-49],[-72,-51],[0,-32]],[[17718,20258],[-28,-90],[-24,25],[-44,-64],[-17,45],[59,62],[-14,38],[-59,14],[0,37],[67,27],[33,53],[27,-147]],[[18751,21185],[-72,-153],[-31,-36],[-2,101],[23,36],[25,-27],[14,86],[43,-7]],[[18362,20735],[-85,-100],[-26,39],[19,48],[73,65],[19,-52]],[[17584,19747],[-26,-11],[-38,63],[24,23],[69,7],[-12,-50],[-17,-32]],[[17761,18901],[-47,-38],[-35,86],[71,18],[11,-66]],[[18675,20916],[-43,-48],[-20,32],[-10,29],[22,40],[51,-53]],[[18208,18009],[-10,-71],[-49,8],[-15,50],[26,32],[48,-19]],[[17568,20663],[-35,-78],[-52,22],[-5,31],[92,25]],[[17362,20515],[-29,-51],[-47,48],[3,56],[73,-53]],[[18362,20735],[0,5],[37,40],[3,-70],[-38,-26],[-2,51]],[[18017,19020],[-30,0],[6,28],[22,32],[2,-60]],[[18614,18208],[8,-3],[-1,-10],[-8,3],[-24,7],[4,12],[21,-9]],[[19909,18602],[-24,-88],[-20,-63],[-57,-1],[-5,-46],[59,-30],[10,-52],[-62,-37],[-18,-59],[-55,-31],[-46,26],[-45,-47],[47,-127],[-32,-37],[19,-20],[-62,-46],[40,-41],[-16,-50]],[[19642,17853],[-41,-11],[-25,33],[19,63],[8,16],[-44,55],[-64,17],[-24,56],[-66,28],[-20,-23],[-78,-10],[-8,0]],[[19299,18077],[-106,55],[36,75],[63,73],[16,16],[37,40],[27,44],[16,34],[12,43],[12,58],[33,144],[72,-72],[50,45],[23,32],[70,37],[61,6],[49,2],[80,-9],[41,-51],[21,-5]],[[19912,18644],[-3,-42]],[[19243,18033],[-25,-3],[-93,29],[0,31]],[[19125,18090],[172,-22]],[[19297,18068],[-54,-35]],[[22022,19161],[84,-63],[122,49],[2,-2],[-54,-40],[-11,-25],[94,66],[62,0],[34,0],[232,10],[224,52]],[[22967,19104],[29,-81],[69,-132],[41,-107],[1,-65],[-105,-159],[103,-56],[3,-119],[24,-55],[32,-71],[116,-196],[-88,-136],[-136,-248],[25,-117],[-23,-42]],[[22274,17544],[-71,119],[-115,37],[-130,47],[-111,52],[-2,-81],[-56,-23],[-63,140],[-47,18],[-118,29],[-75,52],[-70,-33]],[[21416,17901],[20,161],[-54,67],[-11,134],[6,23],[-34,63],[-15,39],[1,74],[-26,17],[-58,66],[-4,21],[45,122],[-35,117]],[[21251,18805],[200,162],[232,153],[171,87],[113,20],[55,-66]],[[16030,13979],[-176,2],[-188,76],[36,90],[18,79],[71,253],[-110,13],[-44,110],[28,89],[139,191],[57,87],[62,139],[60,134],[8,166],[2,46],[7,85]],[[11276,16308],[-28,-15],[-82,65],[-15,68],[66,-5],[59,-113]],[[13385,12412],[-45,-24],[-67,47],[13,41],[46,26],[53,-90]],[[10845,16944],[-55,-44],[-35,23],[18,57],[40,36],[32,-72]],[[11597,16250],[-24,-76],[-72,45],[-5,51],[101,-20]],[[11870,15700],[-100,37],[-6,32],[34,16],[96,-48],[-24,-37]],[[13353,13302],[-93,-14],[-37,73],[92,-1],[38,-58]],[[11775,15781],[-47,-16],[-22,75],[46,14],[23,-73]],[[24151,17255],[207,-199],[54,-119],[0,-110],[68,-196],[112,-44],[127,88],[88,-10],[10,-30],[1,-113],[-108,-94],[-39,-112],[17,-208]],[[24688,16108],[-214,29],[-105,21],[-192,-74],[-5,-2],[-132,-144],[-26,-21],[-57,-8],[-149,-8],[-74,-23],[-48,-9],[-114,8],[-109,-13],[-35,-8],[-22,91],[-72,26]],[[23187,17171],[46,61],[79,-33],[225,33],[94,-49],[224,132],[91,114],[141,-85],[64,-89]],[[22813,15352],[50,-46],[55,-50],[16,-33],[28,-70]],[[22908,14437],[-8,3],[-2,48],[-33,44],[-82,45],[-78,142],[17,117],[8,88],[-2,100],[-11,49],[-8,33],[-35,-3]],[[20548,16574],[-71,-1],[-117,67]],[[20343,16708],[7,87]],[[20350,16795],[88,1],[7,-20],[39,-68],[52,38],[7,54],[93,-5],[23,-45],[6,0],[87,17],[-3,16],[48,32],[48,5],[44,6],[58,27],[52,-19],[25,17],[78,-49],[-23,113],[-19,28],[-4,11],[-25,36],[40,32],[49,30],[55,88],[2,-1],[2,0],[0,3],[2,0],[1,0],[1,2],[2,1],[0,1],[0,3],[0,2],[1,0],[47,-23],[11,66],[8,19]],[[21252,17213],[183,-50],[65,128],[107,-11],[45,-15],[255,-54]],[[19642,17853],[55,-86],[16,-57],[-58,-60]],[[18954,18016],[42,19],[77,41],[52,14]],[[19297,18068],[2,2],[0,7]],[[24688,16108],[5,-100],[-90,-62],[-7,-160],[-6,-150],[71,-77],[30,-34]],[[20269,16833],[67,-34],[14,-4]],[[19926,16819],[9,-9],[17,-8],[40,14],[114,-9],[19,19],[0,48],[23,7],[10,-37],[1,0],[110,-11]],[[26587,13690],[-155,-120],[-100,-16],[-61,36],[1,76],[123,124],[238,110],[30,52],[82,69],[7,-11],[-96,-138],[-24,-10],[14,-83],[-59,-89]],[[21346,17952],[29,-58],[41,7]],[[21252,17213],[-63,60],[-28,2],[-54,60],[-116,93],[-9,21],[-42,69],[29,48],[-61,47],[-22,52],[-13,31],[98,32],[74,2],[109,79],[29,33],[98,44],[30,68],[35,-2]],[[20339,19147],[8,-5],[5,2],[52,-31],[3,-53],[69,-42],[1,-28],[101,-13],[54,7],[-29,-108],[12,-11],[123,25],[81,50],[37,23],[15,11],[176,101],[57,-40],[-39,-80],[174,-76],[-1,-21],[-20,-33],[33,-20]],[[19912,18644],[12,26],[-33,17],[80,96],[60,7],[53,-24],[9,-27],[-16,-15],[25,-32],[69,36],[-6,26],[18,51],[15,40],[38,-11],[24,-8],[48,10],[-14,4],[-68,48],[4,78],[-35,209]],[[20082,18964],[-16,-83],[-62,91],[50,22],[28,-30]],[[20202,18861],[-44,-41],[-29,9],[30,69],[43,-37]],[[20685,20490],[-8,19],[-82,-1],[-41,128],[-28,107],[5,-65],[-34,36],[21,-83],[1,-98],[-40,-41],[-60,13],[-91,-84],[-69,-98],[-120,-104],[-153,-42],[-139,101],[-139,156],[-2,83],[45,81],[-7,100],[30,16],[-37,47],[-17,-96],[-2,-43],[-48,-52],[2,98],[-24,295],[37,145],[-76,30],[42,101],[19,155],[43,56],[0,79],[52,-54],[-2,63],[43,-6],[86,142],[116,100],[99,9],[34,132],[106,-10],[-41,49],[8,42],[73,-12],[22,-35],[94,42],[32,117],[111,126],[44,63],[2,113],[144,23],[-22,201],[34,161],[57,113],[35,-24],[13,108],[49,85],[67,58],[59,212],[109,112],[-23,55],[-126,-21],[1,138],[125,150],[28,-112],[53,55],[88,-57],[-39,181],[152,149],[26,119],[95,12],[24,-78],[68,-4],[9,89],[55,-26],[25,81],[88,37],[38,148],[85,-1],[163,147],[41,-126],[192,191],[86,-64],[76,36],[135,-40],[41,-65],[0,-121],[94,-28],[22,-41],[-1,-26],[-73,11],[-2,-58],[-34,-53],[-53,-117]],[[20906,27142],[9,-86],[27,45],[27,-33],[29,-94],[95,-5],[42,-71],[43,-13],[7,-51],[42,-30],[35,-90],[45,7],[33,-60],[79,-67],[4,-51],[-38,-76],[-25,-31],[-30,80],[-14,9],[-32,-40],[-62,-31],[-8,30],[9,118],[-78,126],[-24,91],[-81,-78],[12,-102],[-30,-45],[4,-149],[-36,-20],[-9,-249],[-35,-31],[-186,179],[-33,94],[29,32],[-3,34],[-46,23],[-14,79],[86,26],[85,88],[-5,71],[-46,-44],[-47,36],[-86,-130],[-36,8],[-52,106],[-38,63],[-1,118],[-34,0],[-26,132],[34,86],[52,-57],[-2,56],[76,5],[3,-31],[-11,-43],[3,-31],[35,-33],[-3,44],[30,73],[25,-12],[81,-182],[1,25],[-37,155],[8,78],[21,33],[81,-53],[16,-31]],[[20988,27400],[113,-96],[37,-34],[4,26],[-12,81],[34,29],[23,-82],[28,15],[-2,78],[182,-87],[10,-31],[-11,-73],[-30,-126],[-113,-61],[-203,34],[-18,27],[4,22],[33,-13],[-13,61],[-95,-29],[-68,131],[10,64],[13,-7],[16,-52],[26,-7],[-10,61],[28,-27],[1,77],[13,19]],[[20532,26727],[-19,-15],[-36,105],[-2,32],[35,-22],[12,-30],[10,-70]],[[20927,23461],[-61,-52],[-16,23],[61,83],[16,-54]],[[21254,25499],[-11,-59],[-33,53],[23,39],[21,-33]],[[20836,23394],[-22,-66],[-25,30],[27,93],[20,-57]],[[18586,24590],[-46,-4],[-1,21],[56,63],[-9,-80]],[[20588,26642],[-18,-20],[-18,63],[17,22],[19,-65]],[[21490,26974],[26,-83],[-25,9],[-15,39],[14,35]],[[20332,22110],[-20,-66],[-57,25],[12,37],[65,4]],[[21450,27393],[15,-61],[-39,43],[-4,33],[28,-15]],[[21954,24471],[-29,-9],[-22,70],[23,26],[28,-87]],[[21013,27484],[14,-69],[-28,23],[-4,50],[18,-4]]],"transform":{"scale":[349.4576024038069,344.84316781140865],"translate":[-2823672.4431,-3077410.3949999996]},"objects":{"NUTS_RG_60M_2021_3035":{"type":"GeometryCollection","geometries":[{"arcs":[[[0,1,2]],[[3]],[[4]],[[5]]],"type":"MultiPolygon","properties":{"NUTS_ID":"DK","LEVL_CODE":0,"CNTR_CODE":"DK","NAME_LATN":"Danmark","NUTS_NAME":"Danmark","MOUNT_TYPE":0,"URBN_TYPE":0,"COAST_TYPE":0,"NAME_ENGL":"Denmark","NAME_FREN":"Danemark","ISO3_CODE":"DNK","SVRG_UN":"UN Member State","CAPT":"Copenhagen","EU_STAT":"T","EFTA_STAT":"F","CC_STAT":"F","NAME_GERM":"Dänemark"},"id":"DK"},{"arcs":[[6,7,8,9,10,11,12,13,14]],"type":"Polygon","properties":{"NUTS_ID":"RS","LEVL_CODE":0,"CNTR_CODE":"RS","NAME_LATN":"Serbia","NUTS_NAME":"Srbija/Сpбија","MOUNT_TYPE":0,"URBN_TYPE":0,"COAST_TYPE":0,"NAME_ENGL":"Serbia","NAME_FREN":"Serbie","ISO3_CODE":"SRB","SVRG_UN":"UN Member State","CAPT":"Belgrade","EU_STAT":"F","EFTA_STAT":"F","CC_STAT":"T","NAME_GERM":"Serbien"},"id":"RS"},{"arcs":[[[15,16,17]],[[18]]],"type":"MultiPolygon","properties":{"NUTS_ID":"EE","LEVL_CODE":0,"CNTR_CODE":"EE","NAME_LATN":"Eesti","NUTS_NAME":"Eesti","MOUNT_TYPE":0,"URBN_TYPE":0,"COAST_TYPE":0,"NAME_ENGL":"Estonia","NAME_FREN":"Estonie","ISO3_CODE":"EST","SVRG_UN":"UN Member State","CAPT":"Tallinn","EU_STAT":"T","EFTA_STAT":"F","CC_STAT":"F","NAME_GERM":"Estland"},"id":"EE"},{"arcs":[[[19,20,21,22,23]],[[24]],[[25]],[[26]],[[27]],[[28]],[[29]],[[30]],[[31]],[[32]],[[33]],[[34]],[[35]],[[36]],[[37]],[[38]],[[39]],[[40]],[[41]],[[42]]],"type":"MultiPolygon","properties":{"NUTS_ID":"EL","LEVL_CODE":0,"CNTR_CODE":"EL","NAME_LATN":"Elláda","NUTS_NAME":"Ελλάδα","MOUNT_TYPE":0,"URBN_TYPE":0,"COAST_TYPE":0,"NAME_ENGL":"Greece","NAME_FREN":"Grèce","ISO3_CODE":"GRC","SVRG_UN":"UN Member State","CAPT":"Athens","EU_STAT":"T","EFTA_STAT":"F","CC_STAT":"F","NAME_GERM":"Griechenland"},"id":"EL"},{"arcs":[[[43,44,45,46,47,48,49]],[[50]],[[51]],[[52]],[[53]],[[54]],[[55]],[[56]],[[57]],[[58]],[[59]],[[60]],[[61]]],"type":"MultiPolygon","properties":{"NUTS_ID":"ES","LEVL_CODE":0,"CNTR_CODE":"ES","NAME_LATN":"España","NUTS_NAME":"España","MOUNT_TYPE":0,"URBN_TYPE":0,"COAST_TYPE":0,"NAME_ENGL":"Spain","NAME_FREN":"Espagne","ISO3_CODE":"ESP","SVRG_UN":"UN Member State","CAPT":"Madrid","EU_STAT":"T","EFTA_STAT":"F","CC_STAT":"F","NAME_GERM":"Spanien"},"id":"ES"},{"arcs":[[[62,63,64]],[[65]],[[66]],[[67]]],"type":"MultiPolygon","properties":{"NUTS_ID":"FI","LEVL_CODE":0,"CNTR_CODE":"FI","NAME_LATN":"Suomi/Finland","NUTS_NAME":"Suomi/Finland","MOUNT_TYPE":0,"URBN_TYPE":0,"COAST_TYPE":0,"NAME_ENGL":"Finland","NAME_FREN":"Finlande","ISO3_CODE":"FIN","SVRG_UN":"UN Member State","CAPT":"Helsinki","EU_STAT":"T","EFTA_STAT":"F","CC_STAT":"F","NAME_GERM":"Finnland"},"id":"FI"},{"arcs":[[[68,69,70,71,72,73,-47,74,-45,75,76]],[[77]],[[78]],[[79]],[[80]],[[81]],[[82]],[[83]]],"type":"MultiPolygon","properties":{"NUTS_ID":"FR","LEVL_CODE":0,"CNTR_CODE":"FR","NAME_LATN":"France","NUTS_NAME":"France","MOUNT_TYPE":0,"URBN_TYPE":0,"COAST_TYPE":0,"NAME_ENGL":"France","NAME_FREN":"France","ISO3_CODE":"FRA","SVRG_UN":"UN Member State","CAPT":"Paris","EU_STAT":"T","EFTA_STAT":"F","CC_STAT":"F","NAME_GERM":"Frankreich"},"id":"FR"},{"arcs":[[[84,-13,85,86,87,88,89]],[[90]],[[91]],[[92]]],"type":"MultiPolygon","properties":{"NUTS_ID":"HR","LEVL_CODE":0,"CNTR_CODE":"HR","NAME_LATN":"Hrvatska","NUTS_NAME":"Hrvatska","MOUNT_TYPE":0,"URBN_TYPE":0,"COAST_TYPE":0,"NAME_ENGL":"Croatia","NAME_FREN":"Croatie","ISO3_CODE":"HRV","SVRG_UN":"UN Member State","CAPT":"Zagreb","EU_STAT":"T","EFTA_STAT":"F","CC_STAT":"F","NAME_GERM":"Kroatien"},"id":"HR"},{"arcs":[[93,94,95,-14,-85,-90,96,97,98]],"type":"Polygon","properties":{"NUTS_ID":"HU","LEVL_CODE":0,"CNTR_CODE":"HU","NAME_LATN":"Magyarország","NUTS_NAME":"Magyarország","MOUNT_TYPE":0,"URBN_TYPE":0,"COAST_TYPE":0,"NAME_ENGL":"Hungary","NAME_FREN":"Hongrie","ISO3_CODE":"HUN","SVRG_UN":"UN Member State","CAPT":"Budapest","EU_STAT":"T","EFTA_STAT":"F","CC_STAT":"F","NAME_GERM":"Ungarn"},"id":"HU"},{"arcs":[[99,100,101]],"type":"Polygon","properties":{"NUTS_ID":"IE","LEVL_CODE":0,"CNTR_CODE":"IE","NAME_LATN":"Éire/Ireland","NUTS_NAME":"Éire/Ireland","MOUNT_TYPE":0,"URBN_TYPE":0,"COAST_TYPE":0,"NAME_ENGL":"Ireland","NAME_FREN":"Irlande","ISO3_CODE":"IRL","SVRG_UN":"UN Member State","CAPT":"Dublin","EU_STAT":"T","EFTA_STAT":"F","CC_STAT":"F","NAME_GERM":"Irland"},"id":"IE"},{"arcs":[[102]],"type":"Polygon","properties":{"NUTS_ID":"IS","LEVL_CODE":0,"CNTR_CODE":"IS","NAME_LATN":"Ísland","NUTS_NAME":"Ísland","MOUNT_TYPE":0,"URBN_TYPE":0,"COAST_TYPE":0,"NAME_ENGL":"Iceland","NAME_FREN":"Islande","ISO3_CODE":"ISL","SVRG_UN":"UN Member State","CAPT":"Reykjavík","EU_STAT":"F","EFTA_STAT":"T","CC_STAT":"F","NAME_GERM":"Island"},"id":"IS"},{"arcs":[[[103,104,105,-73,106,107],[108],[109]],[[110]],[[111]],[[112]]],"type":"MultiPolygon","properties":{"NUTS_ID":"IT","LEVL_CODE":0,"CNTR_CODE":"IT","NAME_LATN":"Italia","NUTS_NAME":"Italia","MOUNT_TYPE":0,"URBN_TYPE":0,"COAST_TYPE":0,"NAME_ENGL":"Italy","NAME_FREN":"Italie","ISO3_CODE":"ITA","SVRG_UN":"UN Member State","CAPT":"Rome","EU_STAT":"T","EFTA_STAT":"F","CC_STAT":"F","NAME_GERM":"Italien"},"id":"IT"},{"arcs":[[113,114,115]],"type":"Polygon","properties":{"NUTS_ID":"LI","LEVL_CODE":0,"CNTR_CODE":"LI","NAME_LATN":"Liechtenstein","NUTS_NAME":"Liechtenstein","MOUNT_TYPE":0,"URBN_TYPE":0,"COAST_TYPE":0,"NAME_ENGL":"Liechtenstein","NAME_FREN":"Liechtenstein","ISO3_CODE":"LIE","SVRG_UN":"UN Member State","CAPT":"Vaduz","EU_STAT":"F","EFTA_STAT":"T","CC_STAT":"F","NAME_GERM":"Liechtenstein"},"id":"LI"},{"arcs":[[116,117,118,119,120]],"type":"Polygon","properties":{"NUTS_ID":"LT","LEVL_CODE":0,"CNTR_CODE":"LT","NAME_LATN":"Lietuva","NUTS_NAME":"Lietuva","MOUNT_TYPE":0,"URBN_TYPE":0,"COAST_TYPE":0,"NAME_ENGL":"Lithuania","NAME_FREN":"Lituanie","ISO3_CODE":"LTU","SVRG_UN":"UN Member State","CAPT":"Vilnius","EU_STAT":"T","EFTA_STAT":"F","CC_STAT":"F","NAME_GERM":"Litauen"},"id":"LT"},{"arcs":[[121,-70,122]],"type":"Polygon","properties":{"NUTS_ID":"LU","LEVL_CODE":0,"CNTR_CODE":"LU","NAME_LATN":"Luxembourg","NUTS_NAME":"Luxembourg","MOUNT_TYPE":0,"URBN_TYPE":0,"COAST_TYPE":0,"NAME_ENGL":"Luxembourg","NAME_FREN":"Luxembourg","ISO3_CODE":"LUX","SVRG_UN":"UN Member State","CAPT":"Luxembourg","EU_STAT":"T","EFTA_STAT":"F","CC_STAT":"F","NAME_GERM":"Luxemburg"},"id":"LU"},{"arcs":[[123,-117,-121,124,-17,125]],"type":"Polygon","properties":{"NUTS_ID":"LV","LEVL_CODE":0,"CNTR_CODE":"LV","NAME_LATN":"Latvija","NUTS_NAME":"Latvija","MOUNT_TYPE":0,"URBN_TYPE":0,"COAST_TYPE":0,"NAME_ENGL":"Latvia","NAME_FREN":"Lettonie","ISO3_CODE":"LVA","SVRG_UN":"UN Member State","CAPT":"Riga","EU_STAT":"T","EFTA_STAT":"F","CC_STAT":"F","NAME_GERM":"Lettland"},"id":"LV"},{"arcs":[[-11,126,127,128,-87,129]],"type":"Polygon","properties":{"NUTS_ID":"ME","LEVL_CODE":0,"CNTR_CODE":"ME","NAME_LATN":"Crna Gora","NUTS_NAME":"Црна Гора","MOUNT_TYPE":0,"URBN_TYPE":0,"COAST_TYPE":0,"NAME_ENGL":"Montenegro","NAME_FREN":"Monténégro","ISO3_CODE":"MNE","SVRG_UN":"UN Member State","CAPT":"Podgorica","EU_STAT":"F","EFTA_STAT":"F","CC_STAT":"T","NAME_GERM":"Montenegro"},"id":"ME"},{"arcs":[[130,-22,131,132,-9,133]],"type":"Polygon","properties":{"NUTS_ID":"MK","LEVL_CODE":0,"CNTR_CODE":"MK","NAME_LATN":"Severna Makedonija","NUTS_NAME":"Северна Македонија","MOUNT_TYPE":0,"URBN_TYPE":0,"COAST_TYPE":0,"NAME_ENGL":"North Macedonia","NAME_FREN":"Macédoine du Nord","ISO3_CODE":"MKD","SVRG_UN":"UN Member State","CAPT":"Skopje","EU_STAT":"F","EFTA_STAT":"F","CC_STAT":"T","NAME_GERM":"Nordmazedonien"},"id":"MK"},{"arcs":[[[134]],[[135]]],"type":"MultiPolygon","properties":{"NUTS_ID":"MT","LEVL_CODE":0,"CNTR_CODE":"MT","NAME_LATN":"Malta","NUTS_NAME":"Malta","MOUNT_TYPE":0,"URBN_TYPE":0,"COAST_TYPE":0,"NAME_ENGL":"Malta","NAME_FREN":"Malte","ISO3_CODE":"MLT","SVRG_UN":"UN Member State","CAPT":"Valletta","EU_STAT":"T","EFTA_STAT":"F","CC_STAT":"F","NAME_GERM":"Malta"},"id":"MT"},{"arcs":[[[-64,136,137]],[[138]]],"type":"MultiPolygon","properties":{"NUTS_ID":"SE","LEVL_CODE":0,"CNTR_CODE":"SE","NAME_LATN":"Sverige","NUTS_NAME":"Sverige","MOUNT_TYPE":0,"URBN_TYPE":0,"COAST_TYPE":0,"NAME_ENGL":"Sweden","NAME_FREN":"Suède","ISO3_CODE":"SWE","SVRG_UN":"UN Member State","CAPT":"Stockholm","EU_STAT":"T","EFTA_STAT":"F","CC_STAT":"F","NAME_GERM":"Schweden"},"id":"SE"},{"arcs":[[-97,-89,139,-105,140]],"type":"Polygon","properties":{"NUTS_ID":"SI","LEVL_CODE":0,"CNTR_CODE":"SI","NAME_LATN":"Slovenija","NUTS_NAME":"Slovenija","MOUNT_TYPE":0,"URBN_TYPE":0,"COAST_TYPE":0,"NAME_ENGL":"Slovenia","NAME_FREN":"Slovénie","ISO3_CODE":"SVN","SVRG_UN":"UN Member State","CAPT":"Ljubljana","EU_STAT":"T","EFTA_STAT":"F","CC_STAT":"F","NAME_GERM":"Slowenien"},"id":"SI"},{"arcs":[[141,142,-94,-99,143,144,145]],"type":"Polygon","properties":{"NUTS_ID":"SK","LEVL_CODE":0,"CNTR_CODE":"SK","NAME_LATN":"Slovensko","NUTS_NAME":"Slovensko","MOUNT_TYPE":0,"URBN_TYPE":0,"COAST_TYPE":0,"NAME_ENGL":"Slovakia","NAME_FREN":"Slovaquie","ISO3_CODE":"SVK","SVRG_UN":"UN Member State","CAPT":"Bratislava","EU_STAT":"T","EFTA_STAT":"F","CC_STAT":"F","NAME_GERM":"Slowakei"},"id":"SK"},{"arcs":[[[146]],[[147,-24,148,149]],[[150]]],"type":"MultiPolygon","properties":{"NUTS_ID":"TR","LEVL_CODE":0,"CNTR_CODE":"TR","NAME_LATN":"Türkiye","NUTS_NAME":"Türkiye","MOUNT_TYPE":0,"URBN_TYPE":0,"COAST_TYPE":0,"NAME_ENGL":"Türkiye","NAME_FREN":"Turquie","ISO3_CODE":"TUR","SVRG_UN":"UN Member State","CAPT":"Ankara","EU_STAT":"F","EFTA_STAT":"F","CC_STAT":"T","NAME_GERM":"Türkei"},"id":"TR"},{"arcs":[[[151,152,153]],[[154,-100,-102]],[[155]],[[156]],[[157]],[[158]],[[159]],[[160]],[[161]],[[162]],[[163]],[[164]],[[165]],[[166]],[[167]]],"type":"MultiPolygon","properties":{"NUTS_ID":"UK","LEVL_CODE":0,"CNTR_CODE":"UK","NAME_LATN":"United Kingdom","NUTS_NAME":"United Kingdom","MOUNT_TYPE":0,"URBN_TYPE":0,"COAST_TYPE":0,"NAME_ENGL":"United Kingdom","NAME_FREN":"Royaume-Uni","ISO3_CODE":"GBR","SVRG_UN":"UN Member State","CAPT":"London","EU_STAT":"F","EFTA_STAT":"F","CC_STAT":"F","NAME_GERM":"Vereinigtes Königreich"},"id":"UK"},{"arcs":[[[168,169,170,171]],[[172,173,174]]],"type":"MultiPolygon","properties":{"NUTS_ID":"NL","LEVL_CODE":0,"CNTR_CODE":"NL","NAME_LATN":"Nederland","NUTS_NAME":"Nederland","MOUNT_TYPE":0,"URBN_TYPE":0,"COAST_TYPE":0,"NAME_ENGL":"Netherlands","NAME_FREN":"Pays-Bas","ISO3_CODE":"NLD","SVRG_UN":"UN Member State","CAPT":"Amsterdam","EU_STAT":"T","EFTA_STAT":"F","CC_STAT":"F","NAME_GERM":"Niederlande"},"id":"NL"},{"arcs":[[175,-119,176,-142,-146,177,178,179]],"type":"Polygon","properties":{"NUTS_ID":"PL","LEVL_CODE":0,"CNTR_CODE":"PL","NAME_LATN":"Polska","NUTS_NAME":"Polska","MOUNT_TYPE":0,"URBN_TYPE":0,"COAST_TYPE":0,"NAME_ENGL":"Poland","NAME_FREN":"Pologne","ISO3_CODE":"POL","SVRG_UN":"UN Member State","CAPT":"Warsaw","EU_STAT":"T","EFTA_STAT":"F","CC_STAT":"F","NAME_GERM":"Polen"},"id":"PL"},{"arcs":[[[-49,180]],[[181]],[[182]],[[183]],[[184]],[[185]],[[186]],[[187]]],"type":"MultiPolygon","properties":{"NUTS_ID":"PT","LEVL_CODE":0,"CNTR_CODE":"PT","NAME_LATN":"Portugal","NUTS_NAME":"Portugal","MOUNT_TYPE":0,"URBN_TYPE":0,"COAST_TYPE":0,"NAME_ENGL":"Portugal","NAME_FREN":"Portugal","ISO3_CODE":"PRT","SVRG_UN":"UN Member State","CAPT":"Lisbon","EU_STAT":"T","EFTA_STAT":"F","CC_STAT":"F","NAME_GERM":"Portugal"},"id":"PT"},{"arcs":[[188,189,-7,-15,-96,190]],"type":"Polygon","properties":{"NUTS_ID":"RO","LEVL_CODE":0,"CNTR_CODE":"RO","NAME_LATN":"România","NUTS_NAME":"România","MOUNT_TYPE":0,"URBN_TYPE":0,"COAST_TYPE":0,"NAME_ENGL":"Romania","NAME_FREN":"Roumanie","ISO3_CODE":"ROU","SVRG_UN":"UN Member State","CAPT":"Bucharest","EU_STAT":"T","EFTA_STAT":"F","CC_STAT":"F","NAME_GERM":"Rumänien"},"id":"RO"},{"arcs":[[191,-132,-21,192,-128]],"type":"Polygon","properties":{"NUTS_ID":"AL","LEVL_CODE":0,"CNTR_CODE":"AL","NAME_LATN":"Shqipëria","NUTS_NAME":"Shqipëria","MOUNT_TYPE":0,"URBN_TYPE":0,"COAST_TYPE":0,"NAME_ENGL":"Albania","NAME_FREN":"Albanie","ISO3_CODE":"ALB","SVRG_UN":"UN Member State","CAPT":"Tirana","EU_STAT":"F","EFTA_STAT":"F","CC_STAT":"T","NAME_GERM":"Albanien"},"id":"AL"},{"arcs":[[-144,-98,-141,-104,-108,193,-114,-116,194,195,196]],"type":"Polygon","properties":{"NUTS_ID":"AT","LEVL_CODE":0,"CNTR_CODE":"AT","NAME_LATN":"Österreich","NUTS_NAME":"Österreich","MOUNT_TYPE":0,"URBN_TYPE":0,"COAST_TYPE":0,"NAME_ENGL":"Austria","NAME_FREN":"Autriche","ISO3_CODE":"AUT","SVRG_UN":"UN Member State","CAPT":"Vienna","EU_STAT":"T","EFTA_STAT":"F","CC_STAT":"F","NAME_GERM":"Österreich"},"id":"AT"},{"arcs":[[-170,197,-123,-69,-77,198,-173,-175,199]],"type":"Polygon","properties":{"NUTS_ID":"BE","LEVL_CODE":0,"CNTR_CODE":"BE","NAME_LATN":"Belgique/België","NUTS_NAME":"Belgique/België","MOUNT_TYPE":0,"URBN_TYPE":0,"COAST_TYPE":0,"NAME_ENGL":"Belgium","NAME_FREN":"Belgique","ISO3_CODE":"BEL","SVRG_UN":"UN Member State","CAPT":"Brussels","EU_STAT":"T","EFTA_STAT":"F","CC_STAT":"F","NAME_GERM":"Belgien"},"id":"BE"},{"arcs":[[-190,200,-149,-23,-131,-134,-8]],"type":"Polygon","properties":{"NUTS_ID":"BG","LEVL_CODE":0,"CNTR_CODE":"BG","NAME_LATN":"Bulgaria","NUTS_NAME":"България","MOUNT_TYPE":0,"URBN_TYPE":0,"COAST_TYPE":0,"NAME_ENGL":"Bulgaria","NAME_FREN":"Bulgarie","ISO3_CODE":"BGR","SVRG_UN":"UN Member State","CAPT":"Sofia","EU_STAT":"T","EFTA_STAT":"F","CC_STAT":"F","NAME_GERM":"Bulgarien"},"id":"BG"},{"arcs":[[201,-195,-115,-194,-107,-72,202]],"type":"Polygon","properties":{"NUTS_ID":"CH","LEVL_CODE":0,"CNTR_CODE":"CH","NAME_LATN":"Schweiz/Suisse/Svizzera","NUTS_NAME":"Schweiz/Suisse/Svizzera","MOUNT_TYPE":0,"URBN_TYPE":0,"COAST_TYPE":0,"NAME_ENGL":"Switzerland","NAME_FREN":"Suisse","ISO3_CODE":"CHE","SVRG_UN":"UN Member State","CAPT":"Bern","EU_STAT":"F","EFTA_STAT":"T","CC_STAT":"F","NAME_GERM":"Schweiz"},"id":"CH"},{"arcs":[[203]],"type":"Polygon","properties":{"NUTS_ID":"CY","LEVL_CODE":0,"CNTR_CODE":"CY","NAME_LATN":"Kýpros","NUTS_NAME":"Κύπρος","MOUNT_TYPE":0,"URBN_TYPE":0,"COAST_TYPE":0,"NAME_ENGL":"Cyprus","NAME_FREN":"Chypre","ISO3_CODE":"CYP","SVRG_UN":"UN Member State","CAPT":"Nicosia","EU_STAT":"T","EFTA_STAT":"F","CC_STAT":"F","NAME_GERM":"Zypern"},"id":"CY"},{"arcs":[[204,-178,-145,-197,205]],"type":"Polygon","properties":{"NUTS_ID":"CZ","LEVL_CODE":0,"CNTR_CODE":"CZ","NAME_LATN":"Česko","NUTS_NAME":"Česko","MOUNT_TYPE":0,"URBN_TYPE":0,"COAST_TYPE":0,"NAME_ENGL":"Czechia","NAME_FREN":"Tchéquie","ISO3_CODE":"CZE","SVRG_UN":"UN Member State","CAPT":"Prague","EU_STAT":"T","EFTA_STAT":"F","CC_STAT":"F","NAME_GERM":"Tschechien"},"id":"CZ"},{"arcs":[[[-2,206,-179,-205,-206,-196,-202,-203,-71,-122,-198,-169,-172,207]],[[208]],[[209]]],"type":"MultiPolygon","properties":{"NUTS_ID":"DE","LEVL_CODE":0,"CNTR_CODE":"DE","NAME_LATN":"Deutschland","NUTS_NAME":"Deutschland","MOUNT_TYPE":0,"URBN_TYPE":0,"COAST_TYPE":0,"NAME_ENGL":"Germany","NAME_FREN":"Allemagne","ISO3_CODE":"DEU","SVRG_UN":"UN Member State","CAPT":"Berlin","EU_STAT":"T","EFTA_STAT":"F","CC_STAT":"F","NAME_GERM":"Deutschland"},"id":"DE"},{"arcs":[[[-65,-138,210]],[[211]],[[212]],[[213]],[[214]],[[215]],[[216]],[[217]],[[218]],[[219]],[[220]],[[221]],[[222]],[[223]]],"type":"MultiPolygon","properties":{"NUTS_ID":"NO","LEVL_CODE":0,"CNTR_CODE":"NO","NAME_LATN":"Norge","NUTS_NAME":"Norge","MOUNT_TYPE":0,"URBN_TYPE":0,"COAST_TYPE":0,"NAME_ENGL":"Norway","NAME_FREN":"Norvège","ISO3_CODE":"NOR","SVRG_UN":"UN Member State","CAPT":"Oslo","EU_STAT":"F","EFTA_STAT":"T","CC_STAT":"F","NAME_GERM":"Norwegen"},"id":"NO"}]}}}