{"type":"Topology","arcs":[[[32260,30525],[71,14],[88,18]],[[32419,30557],[6,-49],[5,-49],[9,-49],[68,-71],[57,30],[28,0],[25,-15],[22,-25],[13,-107],[81,-21],[22,-5],[13,-17],[3,-36],[12,-40],[109,8],[8,-11],[42,-59],[1,-87],[-28,-53],[32,-14],[69,-14],[83,22],[52,81],[19,-13],[-21,-84],[15,-90],[35,-6],[62,-50],[81,-61],[23,-67],[95,21],[29,-2]],[[33489,29624],[26,-28],[166,-29]],[[33681,29567],[67,-26],[54,-112],[20,-33],[52,27],[61,-34],[51,-23],[45,22],[40,-4],[53,-58],[98,-7],[56,-27],[59,-20],[-102,-133],[-51,-58],[-57,-191],[-40,-73],[0,-3],[7,-81],[-25,-122],[-11,-41],[24,-43]],[[34082,28527],[-13,-14],[-17,-33],[-49,-37],[-59,1],[-32,41],[-72,-35],[-2,-32],[30,-25],[-64,-88],[-153,-119],[-3,-46],[-21,-52],[-107,-102],[-32,-76],[29,-26],[-8,-29],[-69,-98],[106,30],[-2,63],[110,70],[119,-17],[-7,-148],[81,-131]],[[33847,27624],[-95,-75],[64,-86],[10,-63],[35,-25],[21,-36],[-29,-93],[-183,-59],[53,-119],[88,-39],[19,-65],[-46,-30],[-32,-71],[2,-88],[55,-73],[134,-65],[86,8],[43,-46],[-79,-91],[2,-58]],[[33995,26450],[-37,-17],[0,1],[-10,-9],[0,-2],[-1,-1],[2,-2],[-98,-41],[-80,-69],[-19,-16],[-13,-21],[-72,-28],[-38,-111],[-139,-32],[-186,-14],[-60,67],[-107,24],[-35,67],[-92,10],[-68,50],[-91,-25],[-53,46],[-117,19],[-26,30],[-21,26],[-61,-9],[-15,-9],[-49,-34],[-63,-27],[-41,-36],[-127,-42],[-79,-110],[-17,-87],[-2,-19],[-6,-93],[-2,-26],[44,-85]],[[32216,25825],[-115,24],[-71,-26],[-68,-25],[-80,40],[-20,10],[-24,12],[-37,-14],[-46,-16],[-18,23],[-25,32],[-72,29],[-2,7]],[[31638,25921],[28,35],[-85,42],[-15,7],[-9,-5],[-27,-12]],[[31530,25988],[-11,17],[-30,47],[-160,75],[-19,9],[-55,22],[-21,-26],[-11,-59],[-72,14],[-86,11],[-109,14],[-110,98],[-104,-4],[-42,51],[-12,14],[-151,81],[-69,38],[-34,-17],[-19,10],[-9,20],[23,21],[16,30],[6,39],[-131,41],[-18,33]],[[30302,26567],[117,81],[99,273],[79,218],[29,75],[41,33],[-36,69],[87,363],[36,16],[88,-135],[26,14],[-34,93],[-119,135],[-36,140],[15,22],[36,-73],[20,10],[29,80],[-23,83],[52,67],[-19,1],[-22,2],[-17,-18],[-57,44],[-137,105],[-27,93],[-59,93],[-16,25],[25,29],[52,62],[-36,42],[-22,25],[1,68],[-104,42],[-3,44],[26,35],[-15,38],[-26,2],[-81,8],[-191,140],[-39,74],[-283,70],[-62,118],[87,47],[-38,64],[24,40],[-93,42],[-12,38],[41,64],[136,33],[104,2],[130,-48],[57,72],[137,4],[136,-198],[44,13],[27,7],[65,19],[84,-51],[61,35],[52,-42],[75,-6],[28,24],[-13,80],[13,181],[-43,151],[0,145],[196,-32],[0,-92],[36,-105],[63,28],[265,-95],[165,49],[13,5],[4,0],[9,0],[2,0],[10,1],[1,0],[14,2],[7,3],[13,7],[6,2],[3,2],[4,1],[3,0],[4,-1],[2,-3],[5,-7],[6,-10],[4,-6],[3,-3],[1,-2],[3,-2],[2,0],[2,0],[4,0],[2,1],[-1,1],[-2,1],[-5,0],[-5,2],[-5,6],[-6,11],[-2,3],[-3,5],[-3,4],[-2,2],[-1,1],[-3,0],[-3,1],[-4,-1],[-3,-2],[-5,-3],[-10,-5],[-1,0],[-4,-1],[-8,-2],[-5,-1],[-3,0],[-7,0],[-8,2],[-11,2],[-10,2],[-2,-3],[-3,1],[-57,48],[38,77],[39,27],[412,134],[85,70],[-8,66],[33,8],[-19,60],[36,209],[176,68]],[[834,17974],[-158,16],[-115,129],[-20,99],[-98,56],[-88,155],[-202,45],[-74,100],[-79,195],[121,-10],[133,73],[99,184],[88,22],[70,81],[-43,371],[42,240],[81,227],[68,71],[289,83],[34,43],[37,-21],[141,-264],[101,-130],[95,-167],[124,-463],[168,-374],[-7,-147],[4,-158],[-38,-64],[-465,-151],[-231,-215],[-77,-26]],[[34401,25671],[70,100],[60,39],[78,43],[76,2],[25,118],[24,15],[22,-37],[11,-144],[10,-126],[8,-94],[-36,-132],[-23,-69],[-9,-103],[-11,-26],[-62,-121],[-154,83],[-13,41],[25,25],[-72,154],[-29,232]],[[62542,84],[34,35],[5,40],[21,6],[72,68],[112,34],[35,-37],[74,-40],[-19,-48],[4,-34],[-19,-25],[-72,-49],[-106,-29],[-69,-5],[-27,12],[-4,31],[-41,41]],[[1153,28503],[38,-4],[6,-45],[-29,-73],[24,-71],[-14,-23],[-84,71],[-26,70],[-49,-92],[-45,-7],[-35,30],[15,78],[45,74],[10,38],[50,9],[22,-101],[54,-17],[18,63]],[[739,27643],[48,-17],[21,-73],[-5,-76],[20,-21],[-26,-54],[-25,-112],[-48,-8],[8,47],[-54,84],[17,32],[36,-16],[-21,98],[23,60],[6,56]],[[56588,1449],[-35,-74],[-27,-7],[13,52],[-27,9],[1,43],[-36,7],[29,38],[38,-18],[47,10],[-3,-60]],[[1085,28103],[-39,21],[5,65],[45,2],[4,-72],[-15,-16]],[[30092,28824],[7,18],[32,-20],[10,-41],[-39,8],[-10,35]],[[30404,28596],[34,-3],[-2,-41],[-19,-11],[-17,21],[4,34]],[[30655,28094],[-5,-8],[-25,5],[-8,30],[24,5],[17,-26],[-3,-6]],[[1199,29911],[13,14],[19,-7],[-8,-34],[-24,27]],[[30655,28094],[12,13],[11,-2],[-3,-20],[-11,-7],[-9,16]],[[37449,28014],[102,-59],[10,-16],[111,-77],[63,-88],[101,-22],[41,-41],[102,-21],[201,2],[76,88],[59,16],[26,7]],[[38341,27803],[40,-140],[-7,-44],[58,-25],[-10,-20],[-7,-30],[0,-26],[57,-45],[103,-22],[17,-32],[-118,-33],[19,-97],[-46,-43],[10,-15]],[[38457,27231],[-62,-8],[-26,14],[-25,70],[-90,27],[-107,6],[-38,-24],[-53,21],[-67,-48],[-61,27],[-210,3],[-80,38],[-53,-33],[-94,5],[-90,-127],[-117,96],[-68,10],[-28,-160],[11,-26],[14,-64],[64,-28],[66,-91],[15,-18],[3,-23],[31,-57],[-5,-75],[16,4],[20,-18],[120,-101],[204,-201],[61,-28],[50,-24],[9,-66],[71,-81],[90,-74],[-26,-50],[-1,0],[-2,-2],[-2,-2],[-1,-3],[0,-3],[1,-3],[1,-2],[2,-3],[2,-1],[-10,-23],[-69,19],[22,43],[-40,50],[-166,96],[-158,-8],[-10,29],[42,31],[-64,40],[-194,-8],[-81,114],[-114,73],[-68,24],[-88,118],[10,55],[49,29],[-27,34],[-138,97],[-43,256],[-50,36],[-3,-60],[-80,21],[-18,107],[-45,36],[-35,-15],[-25,-74],[-84,-181],[-15,-29],[-12,21],[-23,5],[-109,181],[-36,158],[50,-3]],[[36370,27380],[175,25],[2,-1],[103,16],[64,99],[81,-83],[30,-20],[50,26],[98,-41],[49,36],[-29,55],[-9,74],[17,21],[27,18],[92,34],[15,74],[-7,43],[-27,15],[-2,53],[57,47],[30,13],[95,70],[61,-3],[-27,59],[47,29],[87,-25]],[[38365,25956],[42,-69]],[[38407,25887],[-168,97],[-108,63],[-114,31],[5,21],[2,-1],[3,0],[2,1],[1,2],[2,2],[73,6],[165,-121],[5,-4],[90,-28]],[[36693,26939],[13,-42],[-52,7],[17,48],[-30,146],[29,13],[-1,29],[24,-14],[6,-69],[22,-112],[-28,-6]],[[37859,26142],[3,-18],[-30,-28],[-187,-19],[-12,24],[8,20],[40,-7],[67,7],[40,40],[71,-19]],[[37043,26569],[-24,-22],[-41,34],[-36,52],[19,33],[22,-22],[-6,-29],[66,-46]],[[37621,26245],[36,-43],[-19,-11],[-104,13],[-6,10],[12,18],[47,-13],[34,26]],[[36990,26839],[6,-44],[-27,6],[-37,49],[6,29],[52,-40]],[[37461,26121],[-62,-11],[-10,23],[23,16],[50,0],[-1,-28]],[[37069,26568],[9,-68],[-47,29],[-2,25],[40,14]],[[37754,26221],[6,-23],[-77,-1],[-9,12],[4,9],[76,3]],[[36830,27036],[-26,-15],[-21,37],[45,24],[2,-46]],[[37561,25765],[-50,-9],[-18,21],[53,26],[15,-38]],[[36905,26727],[11,-68],[-36,16],[-12,23],[37,29]],[[37504,26312],[-14,-20],[-52,33],[11,18],[37,-9],[18,-22]],[[36782,26811],[-34,-8],[-18,41],[22,22],[30,-55]],[[36656,27229],[-4,-57],[-37,40],[19,34],[22,-17]],[[39344,29305],[10,16]],[[39354,29321],[141,-72],[50,-59],[77,7],[38,-73]],[[39660,29124],[-68,-100],[-72,-16],[-78,-81],[-9,-39],[-19,-4],[-25,-46],[1,-69],[-98,-225],[-50,-213],[-43,-35],[7,-92],[-41,-73],[-42,-40],[-99,-1],[-18,-66],[-162,-42]],[[38844,27982],[-16,0],[-136,-8],[-65,12],[-46,-17],[-89,-108],[-73,5],[-27,-47],[-51,-16]],[[37449,28014],[-96,127],[-29,68],[-73,4]],[[37251,28213],[64,74],[50,16],[12,52],[-29,132],[74,58],[-1,83],[-92,28],[61,48],[77,-21],[83,20],[32,164]],[[37582,28867],[31,6],[181,-120],[69,-4],[154,16],[189,67],[-28,28],[-4,47],[46,58],[30,15],[156,33],[50,81],[114,-35],[49,19],[80,77],[46,105],[22,43],[81,32],[130,-18],[101,54],[72,-33],[62,-68],[131,35]],[[38928,25976],[92,62]],[[39020,26038],[86,-74],[101,-86],[54,-96],[4,-24],[9,-58]],[[39274,25700],[-10,-19],[-7,-69],[9,-29],[8,-24],[6,-21],[-30,-25],[36,-72],[-10,-49],[55,-116],[30,-9],[38,-70],[42,4],[63,-30]],[[39504,25171],[49,-125],[-96,-161],[-49,-155],[-67,-21],[-34,-47],[28,-102],[-39,8],[5,-45],[-26,-40],[-93,3]],[[39182,24486],[-20,89],[-57,76],[-219,138],[24,69],[-75,106],[29,199],[14,149],[-42,50],[39,119],[0,24],[0,26],[0,61],[-32,29],[-60,-5]],[[38783,25616],[-7,76],[-5,53],[-31,71],[48,106],[47,103],[40,36],[3,2],[0,-2],[50,-85]],[[37035,29283],[197,-48],[94,47],[120,-41],[25,-49]],[[37471,29192],[8,-44],[-31,-56],[59,-141],[35,-26],[40,-58]],[[37251,28213],[-43,-22],[14,-88],[-87,12],[-50,-5],[-54,-45],[-37,10],[-126,-10],[-61,-28],[-45,-60],[-33,-32],[-39,-45],[-51,35],[-273,29]],[[36366,27964],[-80,20],[-291,25],[-16,12],[-80,9],[-122,126],[-9,45],[36,39],[-39,5],[-134,-57],[-55,16],[-172,-30],[-62,-107],[-124,49],[-72,-5]],[[35146,28111],[0,44],[-29,26],[-93,-73],[-87,44],[-24,46],[-89,25]],[[34824,28223],[5,50],[-33,65]],[[34796,28338],[49,72],[-38,76]],[[34807,28486],[151,2],[12,-34],[42,-60],[31,-3],[-7,-54],[95,71],[7,86],[159,-9],[40,-76],[9,0],[149,29],[-4,27],[55,16],[26,39],[157,19],[40,2],[4,25],[6,22],[50,-4],[43,-15],[18,-19],[28,2],[8,19],[35,10],[87,-96],[45,12],[9,81],[-56,34],[17,71],[-41,53],[-7,19],[-42,62],[69,54],[82,51],[77,46],[12,98],[26,24],[79,-39],[26,55],[-7,56],[14,32]],[[36351,29194],[104,-91],[84,-12],[50,39],[74,-20],[24,71],[59,48],[22,117],[189,-38],[78,-25]],[[33191,30717],[33,-41],[61,14],[19,-22],[0,-44],[40,-50],[91,7],[20,-37],[75,-36],[-1,-56],[-12,-28],[-38,-71],[4,-35],[-3,-29],[32,7],[40,-13],[45,-3]],[[33597,30280],[61,-69],[-9,-37],[0,-24],[42,-16],[27,-96],[-15,-4],[-65,-47],[-19,-50]],[[33619,29937],[-38,31],[-46,-41],[-61,-133],[46,-106],[-31,-64]],[[32419,30557],[73,33],[131,70],[89,23]],[[32712,30683],[1,-53],[58,4],[67,-19],[34,-33],[42,4],[92,60]],[[33006,30646],[3,3],[2,11]],[[33011,30660],[12,0],[37,-8],[10,43],[28,11],[59,-29],[34,40]],[[40072,26893],[156,52],[91,-16],[195,-14],[82,15],[56,41],[70,-2],[255,14],[97,14],[45,34],[73,81],[68,106],[84,58],[9,3],[205,103],[125,22],[59,-44],[119,9],[85,22],[53,-69],[90,-22],[139,21]],[[42228,27321],[30,-121],[-20,-69],[-116,-25],[-40,-61],[-30,-81],[19,-190],[7,-64],[-51,-42],[-12,-24],[-45,-91],[80,-31],[183,-190]],[[42233,26332],[-27,-9],[-157,-57],[-41,13],[-33,10],[-54,28],[-85,-21],[-23,-45],[-10,-12],[-31,-16],[-115,-59],[-1,-49],[-62,-36],[6,-48]],[[41600,26031],[-106,-25],[11,-20],[15,-23],[25,-40],[9,-62],[-15,-42],[-61,-33],[-16,-10],[-269,-81],[-23,20],[-118,16],[-46,-21],[-125,80],[-182,-50],[-6,-38],[-156,-73],[-278,-71]],[[40259,25558],[1,101],[0,56],[-3,25],[-4,40],[-67,123],[-10,19],[-154,47],[-30,31],[-43,43]],[[39949,26043],[39,56],[18,26],[-41,99],[-3,8],[-23,94],[26,28],[90,28],[75,181],[-118,86],[-33,4],[-67,48],[-81,140],[1,109],[41,41],[27,24],[12,77]],[[39912,27092],[122,-44],[27,-27],[-43,-44],[-6,-56],[60,-28]],[[34481,28568],[46,-5],[17,14],[12,-19],[113,-8],[67,-16],[48,-42],[23,-6]],[[34796,28338],[-21,-119],[49,4]],[[35146,28111],[-27,-95],[27,-44],[-6,-38],[-88,49],[-42,-22],[-21,-62],[30,-37],[10,-70],[-23,-17],[-69,71],[-131,-35],[-47,95],[-46,10],[-20,-24],[-7,-119],[-34,-35],[-50,-81],[2,-82],[-48,-21],[-30,129],[-43,18],[-93,86],[-1,92],[-27,18],[-106,-100],[9,-61],[-102,-121],[-5,-5],[-106,31],[-165,-52],[-40,35]],[[34082,28527],[16,-17],[29,-12],[67,23],[196,-15],[68,53],[-40,-10],[-27,11],[32,60],[39,12],[27,-32],[-10,-31],[2,-1]],[[44865,23150],[2,22],[60,-18],[30,35],[14,55],[39,23],[83,-5],[25,26],[4,55],[-24,69],[35,-9],[213,47],[69,37],[42,45],[34,11],[50,36],[54,51],[11,33],[46,25],[19,32],[74,60],[12,-18],[-35,-28],[-17,-38],[-42,-59],[-39,-36],[-31,-74],[-40,-17],[-16,-42],[18,-49],[77,-55],[-70,-65],[-40,7],[-34,-12],[-17,-30],[-1,-67],[-131,-105],[-48,-11],[-51,-53],[8,-38],[-29,-13],[-40,43],[-69,-36],[-99,6],[-47,21],[-17,35],[-40,24],[-14,49],[-28,31]],[[36561,30350],[52,-17],[18,29]],[[36631,30362],[52,7],[25,75],[62,-11],[54,-96],[55,-8],[92,-13],[91,-54],[19,19],[101,-24],[1,-33],[-40,-52],[126,-160],[48,-10],[48,49],[42,43],[-44,72],[5,24],[191,-89],[102,28],[6,-39],[-25,-43],[76,-75],[62,49],[110,-63],[88,0],[24,-85],[71,-42],[26,-75]],[[38099,29756],[-96,-23],[-54,-62],[-24,-47],[-51,-34],[-23,-121],[-139,-122],[-87,-32],[-83,15],[-71,-138]],[[36351,29194],[-108,102],[-49,5],[-20,46],[-72,56],[-70,78],[-69,17],[-59,62],[1,24],[-16,12],[-72,116],[50,82],[-105,80],[-37,88],[-23,53],[79,-58],[88,112],[79,26],[48,-23],[35,55],[151,79],[50,55],[61,5],[178,104],[-31,50],[11,31],[60,-2],[33,-32],[17,-67]],[[34691,32499],[57,-35],[40,12]],[[34788,32476],[1,-5],[21,-1],[137,-25],[33,-77],[-19,-71],[63,-40],[2,-48],[53,45],[119,-66],[70,37],[44,-30],[-1,-68],[-90,-70],[19,-40],[21,-19],[80,30],[56,-33],[74,45],[28,57],[40,12],[70,15],[63,40],[27,18],[53,24],[24,71],[75,-39],[61,35],[70,-19],[5,87],[33,59],[46,-83],[28,42],[29,-3],[-22,-58],[34,-56],[-86,-43],[-19,-49],[53,-42],[107,31],[50,-89],[45,5],[43,-35]],[[36328,32020],[-2,-34]],[[36326,31986],[-48,1],[-49,-20],[22,-34],[98,-38]],[[36349,31895],[59,-199],[8,-37],[-15,-33],[-7,-76],[-62,-60],[7,-36],[1,-31],[98,-81],[44,-28],[25,-54],[-27,-72],[26,-66],[33,-21],[26,-86],[-11,-38],[-28,-98],[48,-85],[0,-46],[14,-33],[59,-26],[17,-54],[20,-47],[-3,-77],[-50,-149]],[[33681,29567],[2,43],[46,97],[0,55],[-38,18],[-62,65],[-10,92]],[[33597,30280],[27,86],[-69,69],[107,78],[-33,33],[55,65],[-6,84],[-75,130],[20,45],[57,34],[79,-43],[127,53],[-13,63],[11,37],[105,63],[-14,109],[-102,30],[7,77],[98,2],[33,108],[38,77],[5,72],[6,48],[-2,23]],[[34058,31623],[20,44],[-71,9],[-14,13],[42,121],[53,63],[90,-18],[84,15],[61,-4],[29,-36],[19,-57],[-30,-16],[42,-54],[33,24],[-15,50],[15,30],[85,-43],[-10,45],[7,101],[50,54],[35,-30],[71,-3],[82,17],[-24,7],[-55,1],[-61,80],[39,25],[-39,52],[6,55],[-48,34],[60,61],[-6,68],[-61,137],[-5,55]],[[34542,32523],[123,-19],[26,-5]],[[35375,32250],[-46,-3],[-32,21],[-1,32],[10,12],[48,-11],[21,-51]],[[34520,32395],[-28,0],[-31,22],[14,19],[53,-5],[-8,-36]],[[33978,31868],[-11,-52],[-20,20],[-9,31],[14,10],[26,-9]],[[34459,32500],[-32,0],[20,63],[14,-13],[-2,-50]],[[34560,32328],[-8,-44],[-40,15],[0,20],[48,9]],[[34459,32380],[-16,-22],[-21,34],[30,37],[7,-49]],[[34497,32024],[-24,-51],[-25,14],[30,47],[19,-10]],[[33919,31843],[10,-50],[-43,10],[-5,19],[38,21]],[[34312,32141],[-9,-46],[-35,51],[28,13],[16,-18]],[[35028,33489],[34,-2],[46,-82],[110,-8],[28,-76],[-58,-106],[-35,8],[-28,-34],[-24,76],[-45,-48],[-19,-166],[-75,-21],[4,-72],[-97,-1],[33,-63],[-52,-102],[25,-83],[-16,-44],[-2,0],[-3,0],[-1,0],[-20,0],[-2,-74],[79,11],[47,-35],[24,-60],[-100,-21],[-36,19],[-7,3],[-50,-32]],[[34542,32523],[9,251],[-39,44],[-30,-45],[-41,111],[-22,-26],[-36,23],[33,149],[47,56],[-62,127],[24,106],[-17,86],[22,75],[138,-99],[19,15],[11,77],[75,95],[37,-56],[-3,-59],[59,30],[-31,70],[-7,92],[-21,20],[-51,-17],[-38,-110],[-35,-40],[-98,3],[-30,71],[93,146],[242,39],[167,217],[147,58],[22,-216],[-67,-181],[-5,-117],[-26,-29]],[[35763,33024],[2,-48],[25,-71],[-26,-13],[-22,37],[-42,-25],[-42,-43],[0,-51],[65,-58],[-78,-71],[-1,-51],[31,-11],[5,-43],[46,9],[14,-24],[-70,-46],[-60,-85],[-23,-72],[-151,4],[-146,87],[3,57],[26,30],[51,2],[84,-53],[124,68],[-85,114],[-126,28],[-69,265],[69,25],[107,106],[22,-17],[25,-138],[26,42],[17,61],[-12,72],[113,77],[89,-35],[9,-129]],[[35580,32975],[11,-19],[21,1],[0,47],[-32,-29]],[[35096,32891],[45,-72],[24,61],[14,-9],[42,-205],[-51,-124],[-72,49],[-86,8],[-5,65],[-22,0],[-49,41],[-39,151],[199,35]],[[36580,32667],[-19,-50],[-37,6],[-71,28],[-20,17],[5,70],[16,41],[18,-23],[106,-59],[2,-30]],[[35202,32431],[-14,-11],[-12,59],[14,55],[59,91],[7,-37],[-54,-157]],[[35294,33807],[-16,-33],[-49,28],[12,25],[48,11],[5,-31]],[[35165,32998],[-29,-4],[-5,34],[27,34],[21,-4],[-14,-60]],[[34524,32616],[-17,-14],[-18,28],[10,52],[33,-4],[-14,-29],[6,-33]],[[34547,33448],[-24,-8],[-21,46],[44,12],[1,-50]],[[35117,32507],[-17,-42],[-34,47],[7,11],[44,-16]],[[35832,32948],[-1,-55],[-28,16],[10,52],[19,-13]],[[35448,33527],[2,-45],[-26,5],[-18,32],[42,8]],[[35507,33250],[6,-47],[-33,3],[-12,23],[39,21]],[[35332,33813],[-18,-19],[-11,38],[5,22],[25,1],[-1,-42]],[[35154,33086],[-28,-18],[-6,36],[27,33],[7,-51]],[[39318,35554],[11,32],[247,-7],[64,-19],[239,38],[45,52],[49,-30],[4,-35],[-52,-61],[-19,-165],[-71,-119],[97,-186],[34,-122],[101,-146],[-44,-57],[-21,-84],[6,-81]],[[40008,34564],[-139,24],[-97,-77],[-76,25],[-106,111],[-38,-5],[-176,71],[-87,-22],[-52,-49],[-125,-80]],[[39112,34562],[-9,251],[-46,6],[-78,-60],[-75,25],[-99,127],[-4,88],[-45,-20],[-22,235],[52,44],[89,49],[-13,43],[44,-2],[44,74],[97,12],[3,56],[87,-21],[78,29],[25,58],[35,-3],[5,36],[38,-35]],[[38749,34907],[17,-55],[-62,7],[-4,-19],[35,-22],[2,-18],[-47,-33],[-85,-109],[-107,-36],[-17,-122],[-34,-35],[-11,39],[32,77],[-99,63],[20,50],[-28,66],[49,-16],[26,48],[30,-10],[2,15],[57,67],[120,13],[70,49],[34,-19]],[[38497,35118],[117,-73],[14,4],[15,-39],[-21,-3],[-101,-105],[-26,14],[-38,78],[-22,17],[62,107]],[[38647,35128],[37,-10],[18,10],[9,-26],[-52,-19],[-23,28],[11,17]],[[38995,34666],[-19,-21],[-11,17],[0,33],[27,8],[3,-37]],[[38980,35472],[-21,-16],[-19,21],[11,41],[29,-46]],[[41574,25478],[-43,47],[-133,-11],[-196,5],[-16,22],[-119,-98],[-70,-10],[-68,31],[-132,-142],[-107,4],[-40,-19],[-12,-43],[20,-24],[14,-16],[37,-30],[8,-43],[67,-23],[4,-41],[-64,24],[-51,-62],[127,-79],[15,-43],[-18,-35],[-49,14],[-98,102],[-94,9],[-57,-28],[-125,43],[-59,53],[1,84],[-89,-64],[-4,-21],[-20,-25],[23,-51],[-18,-120],[58,-82],[90,-86],[45,-96],[97,-62],[110,-127],[-42,-39],[-61,75],[-87,-11],[-15,-53],[90,-98],[-23,-43],[-70,-43],[-66,0],[-10,-25],[195,-28],[52,-39],[67,4],[28,-71],[70,42],[-190,140],[24,68],[53,8],[131,-82],[218,-47],[112,-181],[105,-55],[21,-42],[-27,-35],[-70,3],[-160,158],[-136,-34],[16,-4],[161,-51],[49,-256],[-32,-28],[-113,79],[-38,41],[-87,-27],[7,32],[33,15],[9,14],[-173,-66],[-41,-42],[34,-36],[0,-45],[46,-66],[52,-13],[-4,35],[34,11],[4,-55],[41,-30],[-16,-30],[-121,-67],[-29,59],[-152,42],[-1,-45],[101,-185],[41,-33],[76,-258],[-181,83],[-47,-43],[-41,-112],[-87,140],[-88,83],[-60,-21],[-38,-85],[-70,27],[-63,120],[13,151],[-58,75],[-179,132],[-38,44],[81,118],[9,55],[101,-8],[92,110],[230,-67],[29,0],[197,-68],[33,19],[-15,45],[80,14],[33,42],[-38,16],[-137,13],[-99,52],[-13,-31],[-64,56],[-28,-44],[-73,-23],[-87,20],[-57,-22],[-287,-66],[-65,111],[-148,149],[44,44],[91,-13],[17,44],[-16,45],[-115,-14],[-42,-36],[-124,135],[-6,-2],[-71,14],[-78,156],[-69,30]],[[39504,25171],[325,91],[44,100],[112,57],[51,-19],[22,11],[133,37],[10,83],[38,25],[20,2]],[[41600,26031],[39,-15],[42,-17],[18,-7],[42,-118],[-97,-97],[32,-147],[-102,-152]],[[41364,22455],[264,80],[111,-11],[147,3],[86,29],[61,-95],[180,103],[26,-32],[-52,-99],[-246,-64],[-166,-54],[-168,-41],[-41,76],[-199,7],[-305,-22],[-42,47],[5,104],[53,7],[8,77],[54,-56],[137,46],[21,-53],[66,-52]],[[41881,24729],[101,-102],[-26,-43],[-150,-5],[-13,68],[-47,-42],[-84,29],[10,53],[105,52],[2,27],[62,18],[39,-22],[1,-33]],[[42863,23110],[-57,-33],[-32,118],[49,111],[104,81],[34,-6],[-30,-188],[-68,-83]],[[41781,24339],[54,-23],[20,10],[1,-77],[21,-55],[-18,-25],[4,-33],[-31,-41],[-72,37],[44,65],[-6,25],[-83,69],[5,18],[61,30]],[[39534,23785],[3,-36],[19,14],[71,-82],[-6,-26],[-38,-3],[-45,20],[-16,-17],[-57,31],[-45,8],[17,79],[39,-4],[17,18],[-7,69],[19,0],[29,-71]],[[39194,24356],[-6,-18],[-39,11],[-126,151],[25,26],[92,7],[-17,-55],[42,-99],[29,-23]],[[41753,23418],[-39,-30],[-33,28],[-21,42],[4,25],[57,63],[38,-39],[-6,-89]],[[41296,25008],[57,-6],[38,24],[11,-12],[-16,-90],[-53,37],[-18,-57],[-58,49],[1,38],[38,17]],[[41071,25314],[-55,-47],[-4,19],[-36,11],[-10,28],[12,46],[31,25],[53,-35],[9,-47]],[[40685,24878],[3,-30],[-33,-3],[-59,16],[-42,-14],[5,25],[-39,48],[2,37],[32,-11],[49,-48],[82,-20]],[[42286,23954],[-56,-49],[-99,15],[-7,8],[63,57],[95,-13],[4,-18]],[[39566,23958],[-56,-25],[-26,10],[-5,29],[12,56],[17,32],[28,11],[30,-113]],[[39689,23487],[-26,-47],[-94,72],[-1,33],[21,26],[30,-29],[52,-15],[18,-40]],[[41434,23792],[-15,-22],[-62,44],[-50,31],[-3,43],[98,-25],[23,-35],[9,-36]],[[42615,22775],[-16,-26],[-31,5],[13,25],[-11,34],[-26,22],[20,31],[10,50],[-7,40],[20,6],[11,-40],[-17,-70],[37,-30],[-3,-47]],[[40737,22817],[4,-47],[-47,6],[-24,37],[-12,47],[21,37],[28,-35],[43,-27],[-13,-18]],[[41932,23785],[-17,-26],[-41,-6],[29,69],[62,14],[38,39],[22,-10],[-47,-62],[-46,-18]],[[42464,23489],[-26,-35],[-43,7],[21,42],[84,57],[39,-23],[-75,-48]],[[41214,24324],[-23,-31],[-44,20],[7,20],[-58,18],[15,59],[42,-20],[4,-31],[57,-35]],[[41984,23446],[-31,-45],[-23,5],[-7,-37],[-37,-34],[-28,12],[46,73],[11,-7],[48,54],[21,-21]],[[41472,25283],[-56,-27],[-55,33],[45,32],[42,-1],[24,-37]],[[41622,23445],[-35,-50],[-56,3],[42,77],[36,1],[13,-31]],[[41343,23195],[-27,-29],[-65,-11],[2,44],[28,19],[45,7],[17,-30]],[[41559,23699],[-24,-9],[-85,54],[13,13],[90,-12],[6,-46]],[[42190,23309],[-36,-31],[1,-29],[-46,2],[-20,32],[59,12],[-14,38],[24,9],[32,-33]],[[40912,24438],[-16,-22],[-35,25],[4,35],[-23,9],[18,43],[22,-47],[24,-4],[6,-39]],[[41202,23695],[-40,-85],[-20,31],[7,46],[21,21],[32,-13]],[[41715,23275],[-14,-43],[-55,38],[3,34],[66,-29]],[[39598,23786],[-34,-7],[-42,80],[38,-5],[-4,-20],[42,-48]],[[42390,23556],[-38,-27],[-21,24],[30,36],[32,-8],[-3,-25]],[[40802,24434],[-16,-34],[-31,1],[-20,34],[8,12],[59,-13]],[[40821,23641],[-20,-15],[-38,47],[57,14],[1,-46]],[[41659,23672],[-13,-24],[-45,5],[-3,30],[42,10],[19,-21]],[[41236,23524],[-20,-9],[-13,49],[13,26],[30,-25],[-10,-41]],[[41454,23594],[-27,-15],[-11,32],[0,45],[27,-9],[11,-53]],[[41597,23614],[-31,-33],[-14,52],[27,29],[18,-48]],[[41306,23428],[-21,-20],[-30,13],[9,41],[30,-2],[12,-32]],[[40872,23236],[25,-53],[-41,4],[-21,44],[37,5]],[[40928,24586],[-3,-40],[-47,-1],[26,59],[24,-18]],[[41046,23548],[-42,-15],[-29,31],[45,19],[26,-35]],[[41619,23234],[-21,-33],[-30,15],[1,26],[41,19],[9,-27]],[[41629,24302],[2,-45],[-37,4],[-8,27],[21,27],[22,-13]],[[41789,23090],[-23,-25],[-18,15],[9,59],[27,-17],[5,-32]],[[40519,24409],[20,-53],[-45,-1],[3,56],[22,-2]],[[42248,23684],[-40,-22],[8,61],[43,-3],[-11,-36]],[[40718,23395],[-11,-39],[-28,-4],[-13,26],[9,25],[43,-8]],[[42800,23448],[-39,-28],[-31,46],[24,11],[46,-29]],[[40843,23478],[15,-51],[-59,12],[11,33],[33,6]],[[42401,23421],[-13,-25],[-30,18],[-3,34],[25,14],[21,-41]],[[41304,24756],[-32,-60],[-15,29],[13,49],[34,-18]],[[39653,23950],[-20,-44],[-22,39],[11,32],[28,1],[3,-28]],[[40506,24236],[-21,-33],[-46,16],[23,35],[44,-18]],[[41541,23162],[-33,-15],[-20,31],[27,40],[26,-56]],[[42529,22727],[-38,-55],[-26,10],[26,52],[38,-7]],[[41933,23136],[-16,-36],[-44,13],[23,43],[37,-20]],[[40690,24451],[-7,-55],[-34,16],[-2,39],[43,0]],[[42342,23818],[-29,-24],[-42,29],[38,24],[33,-29]],[[42601,23321],[-33,-36],[-20,12],[-3,26],[38,21],[18,-23]],[[42515,23372],[-10,-20],[-45,3],[-2,29],[36,15],[21,-27]],[[41337,22178],[-16,-40],[-55,30],[20,20],[51,-10]],[[41092,23208],[-38,-22],[-33,30],[38,24],[33,-32]],[[41421,23344],[-23,-26],[-36,35],[17,33],[42,-42]],[[41388,23246],[1,-20],[-70,16],[17,36],[52,-32]],[[29632,33250],[-150,-139],[-70,-13],[22,-58],[-101,-18],[-52,-36],[4,-21],[54,-117],[62,-61],[94,-32],[56,45],[5,56],[60,24],[39,-52],[8,-68],[41,-29],[-14,-47],[12,-29],[109,7]],[[29811,32662],[14,-51],[-61,-24],[18,-74],[-12,-106],[27,-52],[-50,-114],[7,-68],[-8,-142],[-63,-109],[-80,-134],[-25,-25],[-10,-20],[-27,-22],[20,-52],[-20,-26],[-186,61],[-30,-33],[-129,21],[-57,-10],[-30,-46],[-73,-1],[-324,-114],[-223,-4],[-78,52],[-1,76],[-120,15],[13,69],[-72,74],[106,93],[-66,56],[13,36],[121,-5],[75,96],[75,27],[77,-12],[-82,69],[176,194],[100,8],[10,32],[-5,34],[-211,51],[-32,48],[5,50],[-63,28],[-4,45],[34,39],[55,6],[26,68],[75,22],[-6,35],[-65,15],[-26,53],[13,19],[51,-19],[2,115],[-25,21],[12,20],[114,3],[104,-35],[45,-97],[62,44],[98,-19],[39,48],[118,57],[6,37],[-102,37],[-29,43],[109,61],[36,79],[59,55],[194,10],[26,-97],[37,89],[41,30],[87,-60],[-84,-82]],[[29256,33305],[-32,-23],[-2,59],[20,4],[14,-40]],[[28369,31538],[-31,-5],[-10,24],[27,22],[20,-6],[-6,-35]],[[28613,32933],[-21,-53],[-19,36],[12,33],[28,-16]],[[28281,27072],[288,-52],[182,1],[61,-65],[105,-22],[72,-58],[252,-96],[262,-1],[24,-29],[83,21],[157,-112],[161,21],[64,-45],[25,-18],[37,-25],[92,-31],[32,1],[124,5]],[[31530,25988],[2,-88],[106,21]],[[32216,25825],[9,-20],[28,-61],[-54,-36],[-14,-9],[17,-119],[5,-36],[-174,-122],[-14,-9],[-30,-12],[-176,-68],[-95,-84],[-185,-34],[-283,-58],[-33,-30],[-83,-75],[37,-75],[-98,-26],[-44,-44],[-123,-141],[-126,-144],[-95,-110],[-78,-158],[30,-187],[57,-114],[73,-41],[19,-42],[-117,-74],[-205,-123],[-147,-238],[-43,-62],[40,-38],[-13,-33],[-159,10],[-83,5],[-149,-80],[-94,-87],[-59,-125],[-92,-76],[-24,-20],[-88,65],[-67,6],[-34,-15],[-79,-34],[-159,57],[-139,-2],[-143,45],[-271,36],[-130,-86],[-128,13],[-99,-21],[-50,-47],[-53,-77],[-2,1],[-3,0],[-120,-47],[-169,130],[-58,125],[2,98],[-38,37],[-19,15],[-8,49],[44,29],[-66,118],[-172,152],[-20,14],[-39,10],[-84,9],[-31,-1]],[[27418,23708],[-9,198],[164,206],[103,19],[52,82],[-76,6],[-55,163],[76,146],[67,38],[62,90],[-56,63],[-26,93],[-15,103],[-70,132],[215,-37],[91,141],[-31,110],[33,47],[36,-1],[36,42],[47,255],[-25,114],[51,3],[65,69],[93,29],[15,2],[17,19],[32,13],[75,85],[-31,60],[-78,45],[-9,128],[-147,56],[-68,17],[-27,-46],[-92,-8],[-117,70],[-135,-13],[-45,10],[1,60],[49,51],[-23,71],[-173,-14],[-122,-70]],[[27368,26355],[25,115],[49,70],[-11,28],[30,45],[-10,46],[72,117],[-123,-37],[14,72],[18,31],[-58,37],[17,50],[-31,60],[67,86],[123,46],[232,-24],[9,71],[29,29],[146,59],[82,-21],[88,-33],[62,-89],[83,-41]],[[32060,24464],[19,-31],[19,18],[18,-14],[-32,-55],[43,-28],[43,29],[44,-28],[-4,-47],[-23,-10],[-3,-29],[-48,-41],[-34,-73],[-80,-44],[-35,55],[-72,8],[-22,64],[13,14],[-48,39],[-40,-21],[-12,-33],[-29,37],[-44,35],[114,65],[39,37],[48,30],[28,1],[47,26],[51,-4]],[[22443,20333],[6,-34],[-57,-7],[-73,-35],[-11,-38],[-43,-42],[-9,-27],[-70,-44],[-80,17],[-3,45],[-27,78],[6,26],[-18,58],[41,11],[33,-24],[40,2],[72,-15],[83,43],[34,7],[42,-22],[34,1]],[[23279,19810],[-68,-45],[-35,34],[58,17],[56,28],[21,52],[40,48],[26,12],[47,54],[25,60],[65,3],[17,-23],[-9,-74],[-35,-52],[0,-34],[-52,-76],[-52,-11],[-104,7]],[[22663,19810],[-83,-8],[-32,19],[-41,62],[-11,47],[8,31],[74,40],[15,31],[80,-25],[45,-46],[-9,-27],[14,-36],[-27,-67],[-33,-21]],[[23600,20126],[-31,-27],[-37,38],[29,15],[11,41],[45,26],[77,8],[38,-7],[19,56],[15,2],[22,-43],[-30,-32],[-15,-57],[-44,-20],[-99,0]],[[32559,24447],[16,-55],[-16,-30],[-27,11],[-74,58],[-26,11],[-58,-1],[6,36],[-15,14],[14,17],[48,2],[99,-8],[33,-55]],[[21708,20591],[-52,-48],[-27,131],[-3,63],[52,27],[62,-33],[9,-60],[-31,-26],[-10,-54]],[[31321,23992],[-18,-41],[-23,22],[-41,-2],[-18,56],[47,0],[-1,32],[31,21],[76,13],[21,-12],[7,-35],[-43,-42],[-38,-12]],[[21881,20210],[-22,6],[-36,60],[30,51],[29,-3],[57,-60],[1,-33],[-59,-21]],[[21539,20220],[-50,-37],[-29,-39],[-21,41],[-47,37],[22,20],[26,-21],[86,26],[13,-27]],[[31315,23909],[28,-43],[28,19],[13,-46],[-40,-11],[-21,37],[-41,-25],[0,30],[33,39]],[[28175,22822],[-2,-3],[-13,26],[2,1],[6,0],[6,-6],[3,-6],[1,-2],[0,-3],[0,-2],[-1,-3],[-2,-2]],[[29176,22328],[7,-27],[-17,12],[10,15]],[[38655,40749],[-38,-80],[35,-45],[2,-170],[61,-120],[176,-80],[196,-175],[8,-100],[-67,-320],[30,-69],[156,-171],[126,-144],[110,-196],[-66,-63],[31,-38],[-8,-37],[18,-123],[52,-47],[-14,-77],[23,-73],[109,-64],[62,-151],[140,-110],[14,-91],[-10,-72],[-57,-88],[132,-89],[28,-19],[77,-30],[135,-50],[140,-143],[-11,-252],[-147,-403],[-145,-394],[-67,-83],[-12,-38],[-10,-60],[-36,-24],[-90,-178],[-24,-64],[-7,-12],[-93,-78],[-84,16],[-114,-84],[-52,26],[-2,-69],[-83,-2],[15,-53],[-33,-42],[-187,-38],[-173,-174],[-107,-17],[-47,-61],[-137,-35],[-43,-45],[-85,41],[22,94],[-32,-44],[-114,-35],[-22,33],[-6,85],[-54,-32],[-24,52],[9,42],[-26,26],[-57,-76],[-63,132],[-38,-35],[-79,-3],[-12,34],[13,72],[-44,90],[29,95],[-10,222],[-28,85],[18,21],[-85,158],[-29,192],[-57,82],[-52,125],[1,137],[47,-23],[23,55],[-16,68],[25,-16],[-4,67],[36,45],[64,57],[76,-16],[-18,41],[-14,32],[1,17],[5,44],[54,75],[2,94],[43,2],[1,29],[37,-2],[66,44],[5,27],[-3,48],[48,1],[19,70],[4,17],[7,28],[21,80],[55,99],[30,161],[82,67],[57,9],[13,44],[-44,103],[-34,155],[-61,60],[-94,12],[-38,36],[-91,7],[-10,21]],[[38136,38801],[-21,54],[-72,111],[-44,23],[-26,43],[-17,91],[28,67],[-10,147],[-126,170],[-2,40],[22,29],[-12,64],[-72,19],[11,63],[-37,122],[16,56],[-8,26],[-83,76],[-27,2],[-42,77],[-155,65],[-60,-5],[-125,87],[-140,100],[-41,59],[-49,12]],[[37044,40399],[31,30],[61,-14],[5,29],[-18,36],[0,30],[41,46],[49,-5],[15,-2],[20,-18],[74,-78],[117,-170],[168,-18],[79,54],[16,64],[23,13],[216,-93],[37,43],[1,106],[71,68],[2,58],[-36,109],[-3,52],[6,22],[-10,32],[1,76],[-6,73],[60,149],[110,16],[81,109],[51,19],[121,-109],[83,-19],[74,-15],[70,-96],[-39,-147],[7,-67],[33,-33]],[[37740,35659],[-11,-60],[-36,7],[7,-39],[37,-17],[18,47],[14,-37],[-26,-50],[-180,75],[-5,9],[28,50],[1,41],[44,-61],[-3,91],[87,-23],[25,-33]],[[37786,37282],[-34,-24],[-47,53],[14,63],[42,-8],[-1,-23],[26,-61]],[[38398,38392],[-15,-26],[-54,22],[-5,23],[56,36],[18,-55]],[[37860,35545],[-20,-43],[-44,19],[19,44],[-2,21],[40,-8],[7,-33]],[[38237,35714],[19,-25],[1,-21],[-38,-35],[-20,15],[7,7],[-9,52],[26,-14],[14,21]],[[38139,35700],[-41,-17],[-5,28],[19,17],[-6,20],[2,52],[26,-35],[-9,-43],[14,-22]],[[37988,35765],[16,-32],[9,23],[17,-51],[-11,-16],[-41,22],[-8,36],[18,18]],[[38184,35663],[-12,-32],[-28,9],[2,38],[34,14],[4,-29]],[[38140,35622],[-34,-12],[-15,26],[17,27],[18,-6],[14,-35]],[[37791,35686],[2,-48],[-31,7],[15,54],[14,-13]],[[37952,35759],[-7,-44],[-26,51],[1,26],[32,-33]],[[37952,35831],[2,-44],[-23,12],[-9,25],[1,18],[29,-11]],[[37915,35909],[1,-57],[-22,11],[2,56],[19,-10]],[[37897,35651],[-27,-4],[-7,18],[12,31],[24,-19],[-2,-26]],[[37648,37228],[-14,-61],[-13,9],[5,58],[22,-6]],[[38376,35501],[-14,-9],[-13,21],[0,40],[14,7],[13,-59]],[[27535,39151],[-26,13],[-124,54],[38,87],[35,29],[21,-66],[84,-4],[96,20],[21,55],[36,24],[94,-13],[-119,50],[-17,164],[-17,104],[-218,140],[92,28],[288,-84],[26,28],[-17,79],[82,69],[11,36],[-114,127],[-213,40],[-32,99],[87,52],[62,-33],[53,123],[90,54],[56,-32],[88,-130],[17,53],[-3,143],[18,31],[28,9],[74,-61],[66,-278],[-19,-90],[-58,-110],[1,-136],[117,64],[108,15],[84,135],[34,26],[33,-31],[48,-156],[92,86],[128,4],[59,-197],[41,96],[25,29],[139,-90],[82,25],[115,-16],[98,109],[63,-6],[74,-182],[99,-22],[-17,-71],[17,-95],[-17,-99],[56,-67],[69,-161],[-58,-216],[-112,-119],[-141,-64],[-72,-74],[-104,-46],[-147,19],[-131,-22],[-210,-86],[-213,33],[-150,-54],[-116,-3],[-165,57],[-167,144],[-181,293],[-167,68]],[[27418,23708],[-229,-58],[-110,86],[-168,61],[-172,-10],[40,86],[78,122],[49,221],[-14,70],[118,272],[-195,4],[-3,115],[-86,82],[68,158],[67,147],[104,73],[68,104],[96,146],[103,241],[60,82],[47,141],[13,283],[2,50],[1,28],[13,143]],[[20112,26797],[34,-36],[45,-3],[18,-23],[72,-14],[40,-28],[-11,-38],[-21,-13],[-29,18],[-53,7],[-56,25],[-13,29],[-52,23],[-35,76],[3,18],[37,11],[21,-52]],[[22627,22721],[53,-56],[67,-9],[27,-50],[29,-22],[-53,-43],[-51,14],[-102,98],[-11,50],[41,18]],[[19366,27578],[-7,-19],[-148,93],[-19,32],[5,36],[20,13],[50,-22],[53,-94],[46,-39]],[[19807,27516],[-35,-39],[-71,45],[-20,33],[4,36],[28,13],[31,-11],[53,-41],[10,-36]],[[19491,27584],[-22,-6],[-30,51],[-27,24],[-53,80],[3,13],[13,4],[54,-63],[62,-103]],[[19172,27741],[-46,26],[-7,48],[50,5],[31,-51],[-28,-28]],[[18508,28748],[-42,-33],[-27,17],[14,44],[30,27],[25,-55]],[[20177,26253],[-4,-51],[-58,39],[2,25],[60,-13]],[[19543,27892],[2,-56],[-41,26],[-3,37],[42,-7]],[[18582,28835],[-29,-6],[6,44],[21,20],[21,-22],[-19,-36]],[[23055,22668],[-45,0],[-13,21],[50,24],[18,-12],[-10,-33]],[[22818,21121],[0,-62],[-49,30],[21,36],[28,-4]],[[41309,29266],[222,-212],[101,-54],[31,-71],[74,-107],[24,-100],[-13,-101],[8,-81],[71,-220],[-8,-53],[53,-60],[94,-66],[133,1],[230,162],[78,-24],[42,-66],[23,-197],[-154,-86],[-53,-69],[-84,-231],[45,-170],[2,-140]],[[39912,27092],[-96,112],[43,55],[46,9],[-15,30],[-118,35],[-87,-131],[-59,54],[-2,2],[-143,13],[-38,40],[-87,25],[67,47],[-63,53],[27,76],[-14,32],[-186,45],[-88,79],[-23,141],[-58,14],[-174,159]],[[39660,29124],[92,103],[121,-56],[24,26],[241,-12],[121,54],[160,-94],[49,21],[54,100],[210,76],[71,25],[33,30],[32,101],[90,63],[64,6],[90,-48],[74,-79],[90,-152],[33,-22]],[[39949,26043],[-44,14],[-260,-90]],[[39645,25967],[-24,45],[14,30],[44,92],[-1,43],[-1,37],[-129,10],[-11,63],[-63,10],[-77,94],[-83,14],[-50,62],[-73,-50],[25,-83],[-47,-54],[-3,-52],[-55,-25]],[[39111,26203],[-15,37],[-45,19],[-67,22],[-168,81],[-197,158]],[[38619,26520],[100,72],[-10,50],[-82,104],[92,43],[-30,54],[-157,132],[-2,75],[52,215],[-125,-34]],[[38136,38801],[-105,-21],[-111,-67],[-82,36],[-5,-50],[-83,28],[4,-111],[-18,-83],[-47,-5],[-2,-116],[-48,19],[-14,-138],[-58,-160],[41,-91],[63,-73],[6,-40],[-79,-143],[-75,-243],[-118,-74],[-55,-97],[-7,-12],[-17,9],[-34,17],[-2,-22],[-4,-26],[-46,11],[-8,-44],[-9,-53],[-34,-49],[-67,18],[9,-41],[-46,-63],[-20,-124],[-45,-51],[-21,-93],[-131,-156],[33,-74],[-15,-46],[-17,-155],[45,-99],[-13,-19],[-47,22],[-29,-82],[45,-255],[75,-221],[57,-8],[30,-40],[73,43],[43,-82],[71,-44],[24,66],[57,-84],[-15,-92],[41,1],[21,38],[63,-130],[65,-56],[4,-56],[-76,-51],[10,-171],[14,-6],[18,65],[13,-45],[-92,-191],[-77,8],[-98,-137],[-88,51],[8,-47],[-16,-58],[-79,-32],[6,-47],[-44,17],[-88,-33],[49,-53],[26,-58],[-11,-39],[28,-57],[-83,-139],[44,-30],[-15,-85],[17,-140],[-55,-189],[22,-42],[-24,-74],[-13,-162],[-70,-203],[-9,-56],[-62,-94],[-61,61],[-76,-38],[-178,-6],[-19,-72],[-44,25],[-87,-132],[-1,-54],[37,-95],[-33,-79],[-150,-6],[-115,-44],[-99,28],[-33,71],[23,91],[-154,279],[69,13],[-26,93],[59,21],[-3,93],[-52,26],[-53,91],[-59,45],[-49,127],[-28,41],[-16,94],[-46,-19],[-6,101],[-21,30],[-27,-28],[-10,85],[-44,1],[20,71],[-46,75],[-34,142],[-49,77],[-5,180],[-29,133],[43,57],[50,-46]],[[35382,34754],[8,-53],[42,11],[37,151],[12,29],[-33,184],[49,65],[4,54],[-25,27],[99,43],[71,105],[22,216],[-95,268],[105,39],[40,123],[-1,50],[-64,88],[-56,21],[-67,81],[27,295],[-13,34],[-54,156],[14,69],[-11,82],[24,61],[-39,96],[-10,54],[21,60],[17,51],[-2,26],[-3,36],[117,210],[120,68],[191,-22],[25,75],[6,16],[-19,129],[-98,91],[128,285],[7,70],[25,34],[-7,148],[13,129],[-15,84],[-14,68],[-4,20],[25,4],[11,2],[42,7],[17,3],[19,4],[56,47],[37,30],[-9,34],[-18,74],[31,49],[88,195],[62,81],[-5,86],[-71,131],[65,65],[38,182],[103,127],[79,-28],[54,-25],[32,103],[-24,200],[60,25],[317,-62],[28,49],[-25,55],[32,136],[-40,115],[64,29]],[[37627,34349],[-11,-61],[-81,-113],[6,-84],[42,-37],[-135,-196],[-2,-71],[-31,-29],[-15,10],[0,92],[-20,31],[-16,54],[10,57],[-26,82],[78,161],[66,70],[29,-15],[98,62],[8,-13]],[[36940,33354],[-22,-36],[-28,165],[35,139],[48,82],[44,149],[11,72],[23,30],[9,-17],[-6,-82],[-87,-366],[-27,-136]],[[37867,38560],[-11,-16],[-19,25],[-27,2],[8,53],[33,-28],[16,-36]],[[37616,37566],[-1,-38],[-14,-1],[-12,47],[9,19],[18,-27]],[[35871,32790],[-22,-12],[-14,30],[29,38],[7,-56]],[[36958,36633],[-18,-44],[-20,26],[6,27],[32,-9]],[[37678,34350],[-26,-18],[-12,28],[21,38],[17,-48]],[[37633,34563],[-29,-4],[-12,27],[4,16],[37,-13],[0,-26]],[[37898,38682],[-1,-28],[-35,36],[6,25],[30,-33]],[[37318,34845],[-34,-11],[-7,18],[29,38],[12,-45]],[[38065,38746],[8,-32],[-23,-2],[-10,21],[1,25],[24,-12]],[[38139,38760],[20,-40],[-18,-2],[-14,19],[12,23]],[[36370,27380],[-18,33],[41,45]],[[36393,27458],[45,0],[21,26],[-49,59],[-70,29],[0,6],[6,79],[-41,10],[-9,36],[52,65],[-81,37],[-14,39],[104,73],[9,47]],[[38484,29633],[69,6],[24,73],[80,56],[54,-3],[15,20],[121,-40],[57,66],[95,24],[173,-4],[80,-73],[187,-42]],[[39439,29716],[-44,-133],[-5,-94],[-45,-77],[9,-91]],[[38099,29756],[32,-5],[26,-47],[58,12],[94,119],[81,-101],[45,-7],[13,-91],[36,-3]],[[45191,27027],[59,40],[86,58],[44,-11],[43,-11],[46,-88],[124,-58],[43,15],[59,85],[103,-1],[104,-50],[170,-1],[66,69],[73,-39],[91,16],[154,37],[231,188],[99,54],[84,-16],[206,36],[61,67],[113,100],[164,228],[70,147],[115,9],[39,56],[81,37],[119,19],[20,4],[7,89],[65,35],[29,-38],[164,-38],[53,-45],[61,28],[41,-21],[12,-34],[97,-28],[70,-77],[10,-170],[97,-125],[-5,-35],[125,-6],[60,31],[92,48],[141,-46],[88,-29],[35,-33],[-89,27],[-16,-6],[-29,-37],[25,-162],[-105,-91],[-12,-10],[25,-20],[77,-60],[26,-87],[78,-58],[99,-203],[72,-15],[5,-251],[109,-11],[71,-26],[57,-122],[109,-39],[27,-69],[-70,-46],[-83,-147],[-50,29],[-28,90],[-42,14],[-29,-10],[-23,-8],[-49,-76],[-180,-59],[-116,-2],[-154,-68],[-41,-145],[-36,-33],[-38,-35],[-37,62],[-54,0],[-182,-190],[-349,-146],[-186,-209],[-137,-144],[-219,-141],[-207,-63],[-182,37],[-126,-79],[-165,-146],[-169,-89],[-224,15],[-8,-2],[10,-173],[91,-128],[-102,-62],[12,-110],[-78,-116],[-94,6],[-10,74],[-94,120],[103,240],[-58,82],[-77,-1],[-92,-118],[-27,-115],[-89,-39],[-206,31],[-123,-11],[-125,-192],[-51,-152],[-68,-23],[-39,-80],[-311,-146],[-64,-57],[-99,7],[-120,30],[-165,131],[-361,57],[-268,-44],[-22,-64],[19,-131],[-10,-155],[-108,-2],[-169,-141],[-235,31],[-58,32],[-89,146],[-88,-29],[-128,42],[-97,-14],[-41,-88],[-51,-30],[2,69],[-30,59],[24,71],[-364,-96],[-5,60],[82,26],[22,63],[-91,59],[-74,-11],[-42,98],[-48,33],[45,62],[4,74],[-40,40],[-196,63],[-103,-16],[-80,36],[-3,195],[123,-88],[99,44],[-84,100],[48,124],[-113,148],[-42,67],[52,132],[-110,-14],[-167,-80],[-46,18],[-9,234],[362,356],[139,-40],[111,51],[-39,57],[8,24],[90,5],[3,-61],[83,37],[317,62],[36,35],[-29,25],[-63,36],[55,61],[202,84],[2,35],[-97,2],[-137,56],[14,152],[288,27],[188,75],[129,2],[134,9],[118,59],[30,129],[205,206],[26,32],[30,36],[80,98],[85,57],[171,133],[35,28],[171,40],[182,44],[189,64],[85,101],[54,-18],[75,-107],[109,-28],[33,-7]],[[42233,26332],[2,-88],[59,-74],[18,-22],[16,-20],[13,-5],[345,-84],[-21,-158],[-63,-27],[-182,11],[-90,-51],[-170,-69],[-75,-169],[-113,-108],[-75,-70],[-5,-47],[-146,-207],[-27,16],[-8,116],[180,184],[-24,34],[-231,-77],[-33,10],[-16,34],[-13,17]],[[41560,25123],[-39,-13],[-34,11],[-1,16],[44,42],[59,29],[28,-51],[-57,-34]],[[42700,23530],[-5,-68],[-70,-8],[-13,-17],[-37,12],[6,34],[75,29],[11,23],[33,-5]],[[42268,25573],[-54,-39],[-24,8],[-1,23],[39,30],[40,-22]],[[42824,23549],[-70,-23],[-33,8],[21,23],[76,11],[6,-19]],[[41707,24972],[-21,-14],[-38,33],[43,28],[16,-47]],[[42115,24334],[-41,-14],[-10,42],[35,19],[16,-47]],[[42880,23459],[-47,-33],[-25,36],[62,16],[10,-19]],[[42262,25499],[-14,-33],[-28,-1],[-4,40],[27,17],[19,-23]],[[41984,24772],[-21,-5],[-23,35],[20,28],[22,-9],[2,-49]],[[31654,30870],[-18,15],[-19,4],[-30,-1],[-30,5],[-10,3],[-15,-12],[-31,6],[6,-10],[32,3],[9,11],[26,-16],[52,4],[29,-18],[14,-13],[41,-7],[25,-5],[72,-9],[-21,-42],[61,26],[33,-40],[13,-15],[54,7],[104,-21],[-31,-112],[-93,-32],[-24,-7],[-24,-24],[-12,-41],[-17,2],[-18,2],[-214,-67],[-99,40],[-59,24],[-204,-20],[-39,64],[-21,-20],[-11,19],[-17,-11],[-17,18],[-31,-7],[-47,44],[-26,23],[28,-67],[-125,-16],[-18,-5],[-99,13],[11,-38],[-17,-24],[-169,32],[-22,13],[-115,72],[-112,-10],[-98,-64],[-14,-74],[-73,-75],[-54,15],[-24,46],[-50,10],[-12,27],[-13,46],[-6,30],[-33,-49],[-159,1],[-37,-41],[-91,-9],[-22,-79],[-44,-20],[-74,89],[-84,-8],[17,44],[142,38],[92,71],[37,61],[69,14],[80,59],[45,95],[24,39],[64,-12],[69,89],[151,-6],[218,-65],[35,66],[76,70],[44,-2],[8,34],[38,41],[20,23],[-17,-5],[-30,-8],[-152,-49],[-45,-43],[-65,-2],[-78,62],[-33,32],[-35,63],[-103,-17],[-32,20],[13,24],[76,30],[-151,50],[-166,-33],[-47,69],[14,59],[-15,42],[75,48],[272,69],[147,147],[-45,31],[12,76],[-13,90],[-118,-17],[-35,24],[189,161],[58,13],[89,21],[128,-4],[75,-61],[0,16],[-12,47],[41,20],[30,-71],[58,-7],[-23,13],[-35,28],[-12,41],[-14,69],[56,68],[41,6],[-65,42],[12,53],[62,42],[1,36],[29,39],[-6,35],[-96,-28],[-53,84],[-49,177],[116,180],[41,24],[38,-17],[25,28],[-141,16],[-162,-72],[-114,58],[-37,-70],[-105,105],[-58,-68],[-35,113],[15,39],[31,6],[25,60],[10,16],[42,34],[11,21],[87,97],[6,55],[-46,67],[-8,21],[18,37],[2,53],[20,39],[108,-41],[22,-21],[-22,25],[-55,34],[-8,17],[-12,12],[-28,-4],[0,39],[54,68],[-61,-69],[-74,-123],[-85,47],[-22,-79],[53,-35],[7,-78],[-15,-37],[-45,9],[-28,85],[-66,-99],[-54,-6],[158,473],[63,134],[-47,-1],[-91,-74],[-113,20],[28,129],[67,77],[85,45],[40,111],[-51,15],[-23,54],[-62,49],[-73,149],[36,41],[96,27],[25,-43],[6,-98],[37,-56],[126,5],[-81,41],[8,63],[31,30],[14,118],[149,37],[-9,65],[27,31],[16,61],[52,32],[81,145],[205,-72],[335,-11],[-17,-104],[-29,-41],[-269,-168],[-35,-54],[31,-31],[-14,-36],[-56,-21],[-12,-42],[-37,-33],[-67,-8],[67,-17],[57,42],[194,36],[171,-44],[62,-11],[20,-4],[121,-21],[53,-47],[9,-72],[-116,-189],[-56,-111],[-77,-72],[-67,-101],[-147,-25],[-30,-15],[-41,-32],[124,29],[41,-105],[-241,-88],[-127,74],[8,-13],[80,-70],[27,-10],[99,-45],[109,44],[45,-36],[19,-15],[40,-32],[88,-90],[98,-162],[10,-266],[18,-75],[-2,-46],[21,-80],[3,-3],[4,-4],[0,0],[2,-2],[9,-6],[0,-2],[-1,-1],[-3,1],[-2,-2],[0,-2],[-2,-2],[0,-2],[3,-12],[5,-8],[-1,-1],[-1,-6],[0,-1],[0,-2],[-1,-1],[-2,-1],[-2,-1],[-1,-2],[-1,-3],[-1,-3],[0,-1],[-1,-3],[-1,-3],[-2,-1],[-2,-2],[-3,-2],[-7,3],[4,-3],[3,-1],[3,1],[12,9],[3,-1],[0,3],[2,5],[0,6],[5,1],[1,4],[3,-2],[1,-1],[98,-56],[64,-63],[86,-182],[16,-22],[-22,-40],[-1,-48],[43,-115],[20,-53],[-60,-5],[-41,55],[-56,0],[-91,-5],[126,-8],[90,-112],[45,-41],[20,-74],[14,-54],[-10,-71],[-25,-24],[-67,-64],[49,-70],[47,3],[70,67],[154,-26],[103,-48],[84,-93],[9,-117],[-91,-233],[-80,-60],[-78,-2],[40,-15],[4,-29],[-53,-42],[-68,7],[-21,2],[20,-39],[-8,-31],[-108,-1],[73,-26],[-1,-33],[-4,0],[-62,4],[-38,4],[-48,-25],[-41,9],[-16,8]],[[30018,33153],[-5,-40],[56,-119],[-62,-46],[-19,-19],[16,-11],[95,-23],[7,-75],[-16,-50],[-17,-2],[-9,72],[-17,-30],[13,-70],[-27,-41],[-74,1],[-42,-66],[-43,-22],[-63,50]],[[29632,33250],[29,-20],[31,-1],[26,27],[25,32],[147,0],[77,-37],[33,-12],[8,-51],[10,-35]],[[30251,34741],[-182,-87],[-16,35],[51,56],[-27,39],[-1,70],[31,55],[232,90],[31,22],[14,-32],[-20,-63],[-60,-64],[-53,-121]],[[32028,35847],[-52,-78],[12,-50],[-21,-8],[-83,-206],[-11,37],[30,100],[-52,13],[-32,53],[60,57],[-5,71],[36,36],[20,-6],[4,-66],[30,6],[37,113],[80,50],[11,-22],[-25,-80],[-39,-20]],[[30229,33694],[-110,-137],[-40,-11],[-7,-64],[-90,-14],[41,91],[-27,6],[-31,-35],[-30,2],[54,85],[67,12],[31,-15],[109,87],[33,16],[0,-23]],[[29911,34334],[-39,9],[-1,65],[58,159],[-36,51],[30,28],[54,-8],[32,25],[27,-30],[-24,-45],[-13,3],[-5,-38],[-32,-47],[-51,-172]],[[31326,35096],[33,-20],[7,40],[21,14],[9,-43],[-15,-22],[6,-30],[-38,-16],[-24,44],[-72,16],[-14,-19],[14,-34],[-13,-43],[-22,16],[-14,51],[43,118],[27,16],[45,-8],[10,23],[24,-9],[1,-21],[-23,-21],[-5,-52]],[[30354,32040],[-44,-35],[-27,10],[-19,43],[-23,58],[28,51],[49,5],[82,-88],[-46,-44]],[[31107,30457],[-37,-9],[-57,57],[-6,15],[78,32],[59,-51],[-37,-44]],[[30185,34214],[-33,-33],[-30,48],[39,20],[24,-35]],[[29932,33981],[-11,-22],[-24,11],[2,28],[52,7],[7,-20],[-26,-4]],[[30060,34024],[-45,-16],[-2,15],[47,38],[16,-5],[-16,-32]],[[29853,34291],[-28,-31],[-19,17],[4,36],[43,-22]],[[30371,34866],[-29,-39],[-17,27],[41,35],[5,-23]],[[31380,35282],[-4,-55],[-31,9],[5,28],[30,18]],[[31715,35658],[-18,-31],[-11,12],[-8,24],[17,25],[20,-30]],[[29318,30434],[-46,-27],[-5,32],[42,25],[9,-30]],[[31770,35297],[-35,1],[21,42],[25,-8],[-11,-35]],[[30092,33733],[-24,-58],[-27,10],[43,57],[8,-9]],[[30968,35205],[-21,-16],[-18,11],[15,34],[25,0],[-1,-29]],[[30209,34136],[-22,-8],[-19,19],[43,38],[-2,-49]],[[31409,35149],[-11,2],[1,46],[21,20],[0,-70],[-11,2]],[[31335,34995],[-12,-47],[-16,8],[-3,28],[19,31],[12,-20]],[[31491,35183],[-25,2],[-3,9],[1,32],[11,9],[9,2],[7,-54]],[[31450,35097],[-17,3],[11,38],[14,5],[11,-1],[2,-21],[-21,-24]],[[35382,34754],[-28,54],[-5,9],[-56,6],[-39,-46],[-34,17],[-63,146],[4,84],[-32,131],[19,54],[33,2],[-2,26],[-13,3],[-20,15],[-39,-68],[20,-63],[9,-10],[5,-35],[-13,-24],[-9,-16],[-28,8],[-4,81],[-14,15],[-14,-9],[17,-44],[-5,-66],[31,-52],[-2,-155],[-34,28],[-46,-71],[-72,-28],[-23,34],[-74,-103],[-51,-8],[-10,-37],[-41,-24],[-125,-174],[-178,-140],[-163,-78],[-129,33],[-45,-17],[-106,46],[1,61],[-58,55],[-202,151],[-43,97],[37,166],[51,63],[3,-63],[28,-15],[21,142],[37,23],[-49,67],[-19,-45],[-69,-26],[-43,-52],[-29,18],[-41,-32],[6,115],[31,59],[4,60],[63,62],[-5,-74],[-18,-41],[28,29],[16,57],[61,-12],[-22,95],[98,127],[7,66],[-107,-105],[-82,-123],[-57,-47],[-19,15],[4,118],[159,122],[-22,43],[-51,-17],[-41,25],[-21,-86],[-45,76],[-27,170],[27,24],[-11,112],[70,49],[-35,59],[68,75],[-68,66],[15,86],[44,105],[-20,180],[68,105],[65,-40],[-11,86],[28,32],[10,76],[203,-29],[1,29],[-48,38],[28,82],[107,12],[86,145],[147,81],[144,-9],[-7,81],[139,91],[26,17],[-85,35],[34,71],[-4,55],[35,61],[34,-21],[24,-70],[52,-17],[26,-58],[124,47],[39,-72],[27,-51],[13,0],[49,27],[148,0],[22,152],[-191,-103],[-48,-8],[-80,131],[16,43],[58,46],[3,70],[39,64],[10,16],[15,26],[7,16],[41,25],[19,61],[148,135],[-72,90],[4,51],[152,7],[41,76],[54,39],[6,-4],[2,-10],[-10,-14],[29,-18],[11,208],[87,206],[-20,107],[5,54],[48,0],[60,59],[18,132],[40,142],[151,226],[56,55],[76,154],[76,57],[21,65],[-11,24],[-67,-21],[-16,52],[9,50],[105,30],[8,91],[84,58],[66,-89],[0,161],[-11,36],[-51,23],[-154,-102],[-77,-16],[-22,-46],[-28,28],[-85,-13],[-101,-52],[-16,15],[2,34],[46,51],[94,14],[179,137],[36,98],[9,188],[79,112],[7,-41],[-30,-112],[42,-121],[69,115],[78,-113],[124,96],[-4,105],[-59,-18],[-35,21],[3,146],[45,69],[70,33],[137,-48],[-45,124],[83,254],[54,31],[63,-49],[78,-152],[76,79],[48,-153],[36,185],[-41,92],[2,40],[43,-14],[63,-103],[51,41],[78,9],[-84,120],[46,71],[116,-5],[148,183],[53,0],[16,82],[82,-23],[20,42],[-7,89],[18,69],[102,-2],[30,126],[63,-6],[17,-74],[-52,-272],[10,-103],[24,-23],[141,387],[31,-22],[49,-158],[38,-3],[30,174],[-12,115],[73,67],[90,-54],[13,-110],[48,-96],[23,25],[23,132],[38,28],[96,-38],[121,7],[172,-77],[23,-34],[-8,-40],[-188,-211],[89,-55],[211,-4],[37,-75],[-4,-37],[-57,-17],[-84,34],[18,-58],[-11,-64],[-95,-100],[-1,-135],[-39,-23]],[[35604,46174],[38,-75],[24,35],[53,-30],[44,-61],[7,-30],[-10,-59],[16,-90],[12,24],[5,71],[22,13],[47,-46],[19,-54],[8,-82],[26,-43],[73,3],[53,-72],[6,58],[46,-7],[6,-22],[-10,-24],[3,-19],[131,-75],[5,-23],[-7,-34],[10,-37],[12,-2],[62,-24],[36,-76],[5,-92],[85,30],[34,-21],[10,-15],[17,-60],[60,-70],[80,-20],[29,-78],[-4,-54],[-35,-28],[-95,-175],[-12,9],[-9,109],[-33,54],[-110,-77],[-76,-19],[-5,45],[18,35],[12,154],[-75,90],[-4,18],[26,41],[-4,18],[-62,-5],[-41,98],[-25,16],[-3,19],[54,63],[-6,26],[-26,16],[-83,-62],[-10,-61],[-69,-23],[3,-70],[23,-74],[2,-45],[-55,-75],[-1,-34],[17,-97],[-7,-101],[-61,-62],[-27,-217],[-4,-101],[12,-60],[-1,-46],[-41,-45],[-48,-1],[-30,83],[-85,50],[-2,17],[6,37],[-3,17],[-60,3],[-38,64],[-73,30],[-51,98],[-12,81],[42,40],[61,-14],[5,15],[-13,31],[2,18],[109,73],[-2,19],[-38,6],[-186,-73],[-27,49],[-14,78],[16,47],[46,-10],[71,39],[111,129],[83,19],[1,16],[-23,37],[10,88],[-4,16],[-15,2],[-18,-61],[-55,-56],[-50,25],[-6,34],[11,41],[-6,21],[-35,-51],[-35,0],[0,-37],[-14,-26],[13,-53],[-27,-10],[-11,-52],[-52,-49],[-86,3],[-26,67],[-41,53],[-16,55],[-61,74],[-12,33],[-3,50],[-13,23],[1,19],[29,14],[1,16],[-12,49],[6,54],[-2,15],[-64,-43],[-37,107],[-4,76],[-11,44],[8,41],[-6,34],[1,37],[45,-63],[4,15],[-6,45],[11,41],[12,-22],[12,32],[19,-7],[32,-74],[18,-8],[5,12],[-11,34],[2,24],[40,-21],[111,58],[15,-43],[-16,-45],[-62,-7],[-24,-37],[1,-19],[52,-3],[5,-51],[27,-8],[49,-91],[5,32],[-22,71],[0,47],[43,113],[27,1],[50,-81],[43,-139],[26,-50],[7,-63],[20,6],[57,-96],[-6,55],[-49,130],[-55,234],[-2,52],[26,16],[-4,43],[4,32],[23,23],[20,-12]],[[35941,46412],[71,-89],[77,34],[12,-52],[65,-57],[3,18],[-18,105],[-22,70],[14,14],[19,-24],[0,70],[35,-25],[22,-80],[-4,-50],[12,-24],[22,31],[23,-18],[6,81],[31,-5],[-17,69],[1,14],[32,-36],[13,-38],[21,34],[26,-34],[96,-25],[86,17],[49,-49],[15,-89],[-75,-153],[0,-18],[17,-45],[0,-21],[-43,-83],[-49,3],[-49,-82],[-119,2],[-47,49],[-105,-35],[-60,-15],[-100,46],[-35,45],[-3,18],[14,20],[82,-19],[-9,46],[72,48],[0,24],[-7,9],[-262,-76],[-62,71],[-2,19],[26,32],[-1,26],[-51,19],[-15,40],[0,10],[64,31],[55,-41],[0,30],[-25,33],[-11,41],[62,-29],[-2,70],[-24,30],[-3,19],[29,35],[21,-55],[27,-6]],[[35135,45334],[23,-32],[21,-2],[1,-23],[28,-60],[8,-32],[-5,-10],[-29,15],[-8,38],[-15,14],[-11,29],[-31,33],[-16,-10],[-15,19],[-13,58],[-20,44],[-27,70],[4,16],[-3,34],[24,-3],[22,-21],[1,-35],[18,-6],[3,-21],[-6,-24],[11,-16],[14,-43],[-2,-13],[21,0],[2,-19]],[[36021,40193],[16,-38],[-11,-33],[18,-30],[1,-17],[-81,-72],[4,-16],[-13,-17],[-28,-2],[-10,32],[30,25],[-18,35],[-55,-40],[-19,35],[12,69],[53,33],[34,-34],[8,14],[-23,41],[-2,27],[37,-16],[-11,45],[22,15],[29,-24],[7,-32]],[[37396,41430],[-37,-109],[4,-18],[-50,-56],[-100,-19],[-6,10],[13,41],[-13,18],[18,38],[59,-22],[3,55],[42,-27],[20,28],[-11,50],[31,-9],[8,40],[19,-20]],[[31651,41721],[-91,-52],[-2,31],[49,27],[71,8],[36,47],[24,14],[42,9],[15,-5],[-24,-72],[-13,-5],[-79,2],[-28,-4]],[[37090,46531],[-37,-24],[-9,11],[-3,12],[21,17],[40,56],[19,38],[15,-1],[7,-23],[-44,-65],[-9,-21]],[[36725,46421],[-23,-35],[-29,17],[-25,45],[6,21],[22,-5],[41,-27],[8,-16]],[[35597,39614],[-34,-25],[-2,26],[41,102],[67,42],[-1,-56],[-51,-58],[-20,-31]],[[34526,37126],[-35,-25],[-57,30],[-4,32],[1,31],[46,17],[30,-6],[25,-44],[-6,-35]],[[36976,45855],[8,-23],[-12,-2],[-17,-21],[-22,-6],[-20,-39],[-13,15],[2,33],[26,15],[0,19],[48,9]],[[36788,41015],[9,-49],[9,28],[14,-22],[26,-21],[3,-27],[-20,-14],[-26,1],[-15,20],[-8,34],[-36,33],[10,30],[34,-13]],[[36343,43203],[-15,-17],[-42,42],[-9,24],[1,8],[40,17],[30,-22],[-5,-52]],[[36813,45639],[-15,-9],[-12,15],[-25,12],[-20,39],[6,21],[14,-3],[26,-35],[24,-13],[2,-27]],[[35788,46319],[-19,-14],[-5,15],[-24,6],[-3,10],[2,32],[14,9],[21,-11],[14,-47]],[[36926,44519],[-15,-77],[-8,10],[2,46],[34,98],[6,-14],[-5,-29],[-14,-34]],[[35938,46606],[7,-28],[8,21],[11,-36],[-14,-2],[3,-29],[-16,19],[1,15],[-9,31],[-1,18],[10,-9]],[[33599,35936],[-11,-21],[-22,15],[-34,-49],[-12,30],[11,33],[41,10],[27,20],[0,-38]],[[35425,38389],[-19,-37],[-33,35],[1,24],[40,26],[11,-48]],[[35624,38937],[-7,-25],[-7,19],[7,34],[19,17],[-5,54],[13,0],[16,-40],[-17,-9],[0,-47],[-19,-3]],[[35996,45856],[-17,-17],[-16,38],[1,19],[7,-11],[23,-12],[2,-17]],[[35493,38488],[-17,-6],[-10,127],[9,6],[6,-48],[18,-57],[-6,-22]],[[37032,45839],[8,-25],[-35,4],[-7,11],[-1,9],[35,1]],[[37480,41562],[7,-29],[13,9],[12,-27],[-30,-11],[-22,52],[20,6]],[[35619,38815],[-17,-22],[-14,18],[9,37],[20,0],[2,-33]],[[36028,45803],[-16,-8],[-8,31],[17,7],[7,-30]],[[37606,41627],[1,-37],[-31,20],[6,28],[24,-11]],[[36757,40946],[0,-26],[-37,24],[5,20],[32,-18]],[[35547,38765],[-19,-12],[-10,25],[11,22],[23,-12],[-5,-23]],[[37856,41457],[-15,-26],[-14,20],[15,36],[14,-30]],[[33825,34937],[-15,-32],[-25,6],[9,45],[31,-19]],[[35606,38725],[-24,-17],[-2,49],[22,1],[4,-33]],[[37859,41640],[-16,-18],[-8,11],[10,40],[14,-8],[0,-25]],[[35561,38920],[-7,-44],[-22,9],[6,39],[23,-4]],[[35598,38930],[1,-57],[-25,44],[9,25],[15,-12]],[[35992,46564],[-8,-13],[-8,18],[-1,16],[12,3],[5,-24]],[[35507,38675],[-15,-32],[-15,24],[10,39],[20,-31]],[[35791,39228],[-39,-10],[-2,26],[42,5],[-1,-21]],[[34118,36865],[-8,-26],[-27,5],[-4,12],[8,14],[27,11],[4,-16]],[[33550,34981],[-10,-44],[-19,4],[-9,44],[38,-4]],[[35818,39377],[-9,-30],[-25,19],[11,31],[23,-20]],[[35960,39442],[-15,-22],[-17,21],[25,35],[7,-34]],[[35905,39361],[-18,-12],[-15,18],[29,36],[4,-42]],[[35848,39397],[-15,-38],[-10,11],[7,59],[18,-32]],[[35516,39021],[5,-34],[-27,0],[-8,32],[30,2]],[[37195,41272],[-25,-18],[-7,12],[11,39],[21,-33]],[[35178,37890],[-17,-27],[-21,40],[9,19],[29,-32]],[[33648,36292],[-9,-61],[-18,15],[6,48],[21,-2]],[[35373,38422],[-7,-7],[-19,32],[27,36],[-1,-61]],[[37108,45897],[-3,-12],[-16,27],[-6,23],[12,-5],[13,-33]],[[35829,39295],[-22,-49],[-6,43],[8,23],[20,-17]],[[35762,39186],[3,-45],[-30,15],[-4,19],[31,11]],[[35388,39342],[-35,-5],[-5,13],[5,12],[34,5],[1,-25]],[[35413,46147],[-14,-13],[-3,30],[12,8],[5,-25]],[[36887,41026],[-9,-33],[-18,59],[4,16],[23,-42]],[[36309,40232],[-12,-16],[-11,28],[0,29],[14,0],[9,-41]],[[35459,38542],[-2,-22],[-11,16],[6,19],[7,-13]],[[35463,38493],[-6,-4],[-6,15],[6,16],[6,-6],[0,-21]],[[36393,27458],[-1,52],[-58,50],[-65,-37],[-102,15],[-13,-64],[-159,-77],[-65,8],[-4,-33],[-54,-43],[-37,6],[-45,-62],[27,-22],[51,-52],[-6,-49],[61,-64],[-22,-87],[-46,14],[-2,-104],[51,-219],[27,-34],[122,-101],[170,-112],[157,-78],[25,-44],[11,-20],[44,-96],[48,-122],[31,-92],[74,-140],[29,-54],[46,-44],[30,-22],[124,-92],[31,-22],[34,-53],[64,-27],[32,-15],[59,-28],[403,22],[22,-74],[-55,-62],[-25,-27],[-20,-22],[55,-82],[220,-89],[224,-67],[140,-84],[257,-103],[55,-71],[133,-94],[53,-87],[-34,-186],[-134,46],[-57,125],[-88,63],[-119,-5],[-163,95],[-96,-71],[-80,-159],[-8,-93],[-39,-84],[19,-67],[216,-86],[52,-47],[10,-109],[14,-133],[-108,-18],[-129,-102],[17,-157],[-148,-172],[-52,-132],[-139,-18],[-46,44],[-6,104],[66,60],[39,111],[-30,79],[114,49],[30,46],[-7,55],[-53,70],[-19,74],[-31,117],[-85,128],[-41,144],[-51,61],[-35,12],[-56,-40],[-32,-1],[-27,12],[-17,28],[-46,35],[-45,10],[-42,25],[-8,22],[22,51],[-1,22],[-50,91],[-42,43],[-96,-30],[-35,1],[-33,67],[-155,74],[-121,170],[-194,28],[-92,-31],[-124,90],[-67,26],[-77,81],[-24,25],[-158,168],[-16,17],[-51,13],[-42,61],[-19,33],[-19,34],[-79,51],[-121,13],[-3,67],[-39,56],[-38,49],[-69,34],[-34,84],[-78,8],[-3,165],[-65,136],[-18,38],[-17,127],[-45,88],[-50,37],[-86,15],[-112,80],[-147,80],[-143,34],[-53,-21],[-143,-134],[-57,-102],[-70,-45],[-171,-33]],[[35933,25414],[12,-8],[52,7],[-13,41],[-23,-8],[-28,-32]],[[35923,26512],[30,10],[1,36],[-32,-17],[1,-29]],[[37251,23263],[-59,-184],[2,-64],[61,-48],[-6,-44],[45,-69],[-70,-109],[2,-95],[-52,8],[-210,36],[-90,108],[-134,49],[-156,37],[-352,196],[-96,-4],[-81,58],[-25,57],[27,119],[102,79],[56,-57],[43,0],[49,73],[88,24],[189,-114],[196,30],[84,5],[161,83],[149,-3],[193,94],[-5,-73],[-111,-192]],[[34866,24732],[24,-91],[-76,-144],[39,-89],[-30,-278],[-33,-203],[-13,-20],[-35,-6],[-8,5],[-33,22],[-62,27],[-33,-18],[-24,10],[-19,-18],[-11,-88],[-48,-50],[-14,-15],[-104,12],[-8,26],[-38,49],[-50,-33],[-15,46],[16,58],[-2,147],[30,141],[19,3],[15,82],[-53,40],[32,170],[-30,86],[-37,88],[-61,18],[26,141],[124,-20],[120,54],[31,46],[137,121],[129,-57],[3,-63],[92,-199]],[[35150,25925],[-9,-70],[-26,20],[-92,-14],[-14,28],[34,16],[24,-13],[11,21],[41,-4],[18,30],[13,-14]],[[37070,23687],[1,-41],[34,2],[-6,-50],[-76,61],[15,25],[32,3]],[[35875,22623],[-26,-8],[-33,44],[13,14],[46,-22],[0,-28]],[[34261,23947],[-20,-70],[-27,36],[14,35],[33,-1]],[[36269,22180],[7,-46],[-40,-1],[-22,29],[55,18]],[[36620,24825],[-17,-36],[-42,9],[5,36],[54,-9]],[[37242,25631],[-34,-38],[-20,46],[28,18],[26,-26]],[[35364,25660],[-35,-35],[-20,33],[20,25],[15,0],[20,-23]],[[34925,26032],[-25,-35],[-24,32],[27,41],[22,-38]],[[34253,24907],[-16,-47],[-36,31],[24,35],[28,-19]],[[34291,24950],[-28,0],[-17,34],[32,20],[21,-29],[-8,-25]],[[39753,33675],[28,-23],[52,-19],[125,-100],[83,-1]],[[40041,33532],[8,-171],[70,-18],[10,-30],[-12,-54],[-103,-42],[-21,-81],[-81,-54],[-29,-79],[25,-119],[-25,-134],[71,-50],[11,-33],[-62,-24],[-17,56],[-22,13],[-73,-42],[-39,-66],[-75,-15],[2,-86],[-51,-7],[-57,-66],[-76,16],[-211,-44]],[[39284,32402],[-23,90],[-68,59],[-125,51],[-52,-22]],[[39016,32580],[-50,104],[28,145],[-109,121],[-154,-43],[-145,53],[-91,40],[-30,-23],[-33,127],[-55,87],[-32,110],[-15,112]],[[38330,33413],[33,13],[20,60],[66,74],[126,68],[37,30],[160,-5],[65,12],[17,20],[48,-34],[57,39],[143,22],[132,-35],[110,38],[29,67],[58,33],[95,-113],[165,1],[62,-28]],[[40008,34564],[49,16],[18,-50],[49,-20],[61,-44],[6,-232],[57,13],[110,-134],[72,-142],[-4,-65],[-108,-162],[-8,-81],[-151,-11],[-65,-99],[-53,-21]],[[38330,33413],[-50,143],[-15,256],[74,124],[-5,104],[1,62],[57,153],[210,133],[18,-3],[38,-78],[137,-88],[32,-27],[29,-60],[35,-59],[101,-40],[96,36],[45,54],[52,73],[6,58],[-79,308]],[[39111,26203],[-108,-65],[19,-58],[-2,-42]],[[38783,25616],[-82,42],[-12,23],[-9,17],[-103,98],[-14,14],[-61,21],[-30,52],[-16,-2],[-27,-3],[-22,9]],[[38365,25956],[34,46],[11,16],[-48,74],[5,97],[52,46],[8,105],[71,63],[53,-31],[18,22],[-50,77],[7,29],[10,13],[83,7]],[[39274,25700],[60,16],[-5,51],[5,23],[119,106],[53,-34],[83,81],[8,21],[48,3]],[[37006,22186],[-23,-22],[-60,16],[-20,20],[-5,45],[22,2],[86,-61]],[[36894,22290],[-25,-29],[-42,14],[-2,20],[36,11],[33,-16]],[[33953,31717],[13,-38],[50,-24],[5,-23],[37,-9]],[[33011,30660],[-157,38],[-65,49],[24,36],[76,3],[2,95],[73,46],[-10,66],[45,12],[13,15],[13,12],[64,68],[46,74],[26,58],[22,73],[21,99],[38,162],[34,53],[23,-26],[-39,-62],[11,-48],[111,43],[87,77],[8,27],[133,83],[121,17],[35,-9],[148,27],[39,-31]],[[32712,30683],[64,11],[84,-39],[61,20],[85,-29]],[[33418,31756],[10,-17],[1,3],[1,2],[2,1],[2,1],[8,1],[2,0],[1,-1],[2,-2],[1,-3],[0,-4],[-1,-3],[-1,-3],[-1,-2],[-1,-1],[-3,-1],[-1,0],[-1,-2],[-1,-1],[-3,1],[-3,1],[-1,1],[-1,1],[-1,2],[-1,3],[0,3],[-1,-9],[-10,-20],[-22,-3],[-6,21],[5,16],[14,13],[10,2]],[[33582,31754],[-33,-19],[-21,28],[32,24],[22,-33]],[[33894,31790],[-22,-24],[-23,23],[25,18],[20,-17]],[[37810,32393],[123,22],[87,60],[3,-2],[-113,-79],[3,-32],[48,5],[112,107],[163,0],[398,17],[382,89]],[[39284,32402],[50,-136],[139,-249],[48,-157],[17,-113],[-127,-112],[-67,-156],[182,-97],[12,-138],[-17,-44],[45,-111],[55,-119],[172,-201],[-33,-36],[54,-80],[3,-100],[-101,-67],[-47,-80],[-233,-420],[52,-180],[46,-84],[-95,-6]],[[36349,31895],[76,1],[20,72],[-38,17],[-80,-12],[-1,13]],[[36328,32020],[52,-2],[79,48],[34,-29],[31,60],[167,74],[225,85],[109,140],[63,34],[167,105],[125,42],[204,48],[83,-125],[34,-85],[109,-22]]],"transform":{"scale":[204.3079532665554,203.27967758838793],"translate":[-2823672.4431,-3076354.2174000004]},"objects":{"NUTS_RG_20M_2021_3035":{"type":"GeometryCollection","geometries":[{"arcs":[[[0,1,2,3,4,5,6,7,8,9,10]],[[11]],[[12]],[[13]],[[14]],[[15]],[[16]],[[17]],[[18]],[[19]],[[20]],[[21]],[[22]]],"type":"MultiPolygon","properties":{"NUTS_ID":"FR","LEVL_CODE":0,"CNTR_CODE":"FR","NAME_LATN":"France","NUTS_NAME":"France","MOUNT_TYPE":0,"URBN_TYPE":0,"COAST_TYPE":0,"NAME_ENGL":"France","NAME_FREN":"France","ISO3_CODE":"FRA","SVRG_UN":"UN Member State","CAPT":"Paris","EU_STAT":"T","EFTA_STAT":"F","CC_STAT":"F","NAME_GERM":"Frankreich"},"id":"FR"},{"arcs":[[[23,24,25,26]],[[27,28]],[[29]],[[30]],[[31]],[[32]],[[33]],[[34]],[[35]],[[36]],[[37]],[[38]],[[39]],[[40]],[[41]],[[42]]],"type":"MultiPolygon","properties":{"NUTS_ID":"HR","LEVL_CODE":0,"CNTR_CODE":"HR","NAME_LATN":"Hrvatska","NUTS_NAME":"Hrvatska","MOUNT_TYPE":0,"URBN_TYPE":0,"COAST_TYPE":0,"NAME_ENGL":"Croatia","NAME_FREN":"Croatie","ISO3_CODE":"HRV","SVRG_UN":"UN Member State","CAPT":"Zagreb","EU_STAT":"T","EFTA_STAT":"F","CC_STAT":"F","NAME_GERM":"Kroatien"},"id":"HR"},{"arcs":[[43,44,45,46,-24,47,48,49]],"type":"Polygon","properties":{"NUTS_ID":"HU","LEVL_CODE":0,"CNTR_CODE":"HU","NAME_LATN":"Magyarország","NUTS_NAME":"Magyarország","MOUNT_TYPE":0,"URBN_TYPE":0,"COAST_TYPE":0,"NAME_ENGL":"Hungary","NAME_FREN":"Hongrie","ISO3_CODE":"HUN","SVRG_UN":"UN Member State","CAPT":"Budapest","EU_STAT":"T","EFTA_STAT":"F","CC_STAT":"F","NAME_GERM":"Ungarn"},"id":"HU"},{"arcs":[[50,51,52,53,54,55]],"type":"Polygon","properties":{"NUTS_ID":"AL","LEVL_CODE":0,"CNTR_CODE":"AL","NAME_LATN":"Shqipëria","NUTS_NAME":"Shqipëria","MOUNT_TYPE":0,"URBN_TYPE":0,"COAST_TYPE":0,"NAME_ENGL":"Albania","NAME_FREN":"Albanie","ISO3_CODE":"ALB","SVRG_UN":"UN Member State","CAPT":"Tirana","EU_STAT":"F","EFTA_STAT":"F","CC_STAT":"T","NAME_GERM":"Albanien"},"id":"AL"},{"arcs":[[56,57,-49,58,59,60,61,62,63,64]],"type":"Polygon","properties":{"NUTS_ID":"AT","LEVL_CODE":0,"CNTR_CODE":"AT","NAME_LATN":"Österreich","NUTS_NAME":"Österreich","MOUNT_TYPE":0,"URBN_TYPE":0,"COAST_TYPE":0,"NAME_ENGL":"Austria","NAME_FREN":"Autriche","ISO3_CODE":"AUT","SVRG_UN":"UN Member State","CAPT":"Vienna","EU_STAT":"T","EFTA_STAT":"F","CC_STAT":"F","NAME_GERM":"Österreich"},"id":"AT"},{"arcs":[[65,66,67,-2,68,69,70,71]],"type":"Polygon","properties":{"NUTS_ID":"BE","LEVL_CODE":0,"CNTR_CODE":"BE","NAME_LATN":"Belgique/België","NUTS_NAME":"Belgique/België","MOUNT_TYPE":0,"URBN_TYPE":0,"COAST_TYPE":0,"NAME_ENGL":"Belgium","NAME_FREN":"Belgique","ISO3_CODE":"BEL","SVRG_UN":"UN Member State","CAPT":"Brussels","EU_STAT":"T","EFTA_STAT":"F","CC_STAT":"F","NAME_GERM":"Belgien"},"id":"BE"},{"arcs":[[72,73,74,75,76,77,78]],"type":"Polygon","properties":{"NUTS_ID":"BG","LEVL_CODE":0,"CNTR_CODE":"BG","NAME_LATN":"Bulgaria","NUTS_NAME":"България","MOUNT_TYPE":0,"URBN_TYPE":0,"COAST_TYPE":0,"NAME_ENGL":"Bulgaria","NAME_FREN":"Bulgarie","ISO3_CODE":"BGR","SVRG_UN":"UN Member State","CAPT":"Sofia","EU_STAT":"T","EFTA_STAT":"F","CC_STAT":"F","NAME_GERM":"Bulgarien"},"id":"BG"},{"arcs":[[79,-63,80,-61,81,-5,82]],"type":"Polygon","properties":{"NUTS_ID":"CH","LEVL_CODE":0,"CNTR_CODE":"CH","NAME_LATN":"Schweiz/Suisse/Svizzera","NUTS_NAME":"Schweiz/Suisse/Svizzera","MOUNT_TYPE":0,"URBN_TYPE":0,"COAST_TYPE":0,"NAME_ENGL":"Switzerland","NAME_FREN":"Suisse","ISO3_CODE":"CHE","SVRG_UN":"UN Member State","CAPT":"Bern","EU_STAT":"F","EFTA_STAT":"T","CC_STAT":"F","NAME_GERM":"Schweiz"},"id":"CH"},{"arcs":[[83]],"type":"Polygon","properties":{"NUTS_ID":"CY","LEVL_CODE":0,"CNTR_CODE":"CY","NAME_LATN":"Kýpros","NUTS_NAME":"Κύπρος","MOUNT_TYPE":0,"URBN_TYPE":0,"COAST_TYPE":0,"NAME_ENGL":"Cyprus","NAME_FREN":"Chypre","ISO3_CODE":"CYP","SVRG_UN":"UN Member State","CAPT":"Nicosia","EU_STAT":"T","EFTA_STAT":"F","CC_STAT":"F","NAME_GERM":"Zypern"},"id":"CY"},{"arcs":[[84,85,86,-57,-65,87]],"type":"Polygon","properties":{"NUTS_ID":"CZ","LEVL_CODE":0,"CNTR_CODE":"CZ","NAME_LATN":"Česko","NUTS_NAME":"Česko","MOUNT_TYPE":0,"URBN_TYPE":0,"COAST_TYPE":0,"NAME_ENGL":"Czechia","NAME_FREN":"Tchéquie","ISO3_CODE":"CZE","SVRG_UN":"UN Member State","CAPT":"Prague","EU_STAT":"T","EFTA_STAT":"F","CC_STAT":"F","NAME_GERM":"Tschechien"},"id":"CZ"},{"arcs":[[[88,89,90,91,92,-85,-88,-64,-80,-83,-4,93,-67,94,95,96]],[[97]],[[98]],[[99]],[[100]],[[101]],[[102]],[[103]],[[104]],[[105]]],"type":"MultiPolygon","properties":{"NUTS_ID":"DE","LEVL_CODE":0,"CNTR_CODE":"DE","NAME_LATN":"Deutschland","NUTS_NAME":"Deutschland","MOUNT_TYPE":0,"URBN_TYPE":0,"COAST_TYPE":0,"NAME_ENGL":"Germany","NAME_FREN":"Allemagne","ISO3_CODE":"DEU","SVRG_UN":"UN Member State","CAPT":"Berlin","EU_STAT":"T","EFTA_STAT":"F","CC_STAT":"F","NAME_GERM":"Deutschland"},"id":"DE"},{"arcs":[[[106,-89,-97,107]],[[108],[109]],[[110]],[[111]],[[112]],[[113]],[[114]],[[115]],[[116]],[[117]],[[118]],[[119]],[[120]],[[121]],[[122]]],"type":"MultiPolygon","properties":{"NUTS_ID":"DK","LEVL_CODE":0,"CNTR_CODE":"DK","NAME_LATN":"Danmark","NUTS_NAME":"Danmark","MOUNT_TYPE":0,"URBN_TYPE":0,"COAST_TYPE":0,"NAME_ENGL":"Denmark","NAME_FREN":"Danemark","ISO3_CODE":"DNK","SVRG_UN":"UN Member State","CAPT":"Copenhagen","EU_STAT":"T","EFTA_STAT":"F","CC_STAT":"F","NAME_GERM":"Dänemark"},"id":"DK"},{"arcs":[[[123,124,125]],[[126]],[[127]],[[128]],[[129]],[[130]]],"type":"MultiPolygon","properties":{"NUTS_ID":"EE","LEVL_CODE":0,"CNTR_CODE":"EE","NAME_LATN":"Eesti","NUTS_NAME":"Eesti","MOUNT_TYPE":0,"URBN_TYPE":0,"COAST_TYPE":0,"NAME_ENGL":"Estonia","NAME_FREN":"Estonie","ISO3_CODE":"EST","SVRG_UN":"UN Member State","CAPT":"Tallinn","EU_STAT":"T","EFTA_STAT":"F","CC_STAT":"F","NAME_GERM":"Estland"},"id":"EE"},{"arcs":[[[131,-54,132,-76,133]],[[134]],[[135]],[[136]],[[137]],[[138]],[[139]],[[140]],[[141]],[[142]],[[143]],[[144]],[[145]],[[146]],[[147]],[[148]],[[149]],[[150]],[[151]],[[152]],[[153]],[[154]],[[155]],[[156]],[[157]],[[158]],[[159]],[[160]],[[161]],[[162]],[[163]],[[164]],[[165]],[[166]],[[167]],[[168]],[[169]],[[170]],[[171]],[[172]],[[173]],[[174]],[[175]],[[176]],[[177]],[[178]],[[179]],[[180]],[[181]],[[182]],[[183]],[[184]],[[185]],[[186]],[[187]],[[188]],[[189]],[[190]],[[191]],[[192]],[[193]],[[194]],[[195]],[[196]]],"type":"MultiPolygon","properties":{"NUTS_ID":"EL","LEVL_CODE":0,"CNTR_CODE":"EL","NAME_LATN":"Elláda","NUTS_NAME":"Ελλάδα","MOUNT_TYPE":0,"URBN_TYPE":0,"COAST_TYPE":0,"NAME_ENGL":"Greece","NAME_FREN":"Grèce","ISO3_CODE":"GRC","SVRG_UN":"UN Member State","CAPT":"Athens","EU_STAT":"T","EFTA_STAT":"F","CC_STAT":"F","NAME_GERM":"Griechenland"},"id":"EL"},{"arcs":[[[197,198]],[[199]],[[200]],[[201]]],"type":"MultiPolygon","properties":{"NUTS_ID":"IE","LEVL_CODE":0,"CNTR_CODE":"IE","NAME_LATN":"Éire/Ireland","NUTS_NAME":"Éire/Ireland","MOUNT_TYPE":0,"URBN_TYPE":0,"COAST_TYPE":0,"NAME_ENGL":"Ireland","NAME_FREN":"Irlande","ISO3_CODE":"IRL","SVRG_UN":"UN Member State","CAPT":"Dublin","EU_STAT":"T","EFTA_STAT":"F","CC_STAT":"F","NAME_GERM":"Irland"},"id":"IE"},{"arcs":[[[202,-10,203,-8,204,205,206]],[[207]],[[208]],[[209]],[[210]],[[211]],[[212]],[[213]],[[214]],[[215]],[[216]],[[217]],[[218]],[[219]]],"type":"MultiPolygon","properties":{"NUTS_ID":"ES","LEVL_CODE":0,"CNTR_CODE":"ES","NAME_LATN":"España","NUTS_NAME":"España","MOUNT_TYPE":0,"URBN_TYPE":0,"COAST_TYPE":0,"NAME_ENGL":"Spain","NAME_FREN":"Espagne","ISO3_CODE":"ESP","SVRG_UN":"UN Member State","CAPT":"Madrid","EU_STAT":"T","EFTA_STAT":"F","CC_STAT":"F","NAME_GERM":"Spanien"},"id":"ES"},{"arcs":[[[220,221,222]],[[223]],[[224]],[[225]],[[226]],[[227]],[[228]],[[229]],[[230]],[[231]],[[232]],[[233]],[[234]],[[235]],[[236]],[[237]],[[238]]],"type":"MultiPolygon","properties":{"NUTS_ID":"FI","LEVL_CODE":0,"CNTR_CODE":"FI","NAME_LATN":"Suomi/Finland","NUTS_NAME":"Suomi/Finland","MOUNT_TYPE":0,"URBN_TYPE":0,"COAST_TYPE":0,"NAME_ENGL":"Finland","NAME_FREN":"Finlande","ISO3_CODE":"FIN","SVRG_UN":"UN Member State","CAPT":"Helsinki","EU_STAT":"T","EFTA_STAT":"F","CC_STAT":"F","NAME_GERM":"Finnland"},"id":"FI"},{"arcs":[[239]],"type":"Polygon","properties":{"NUTS_ID":"IS","LEVL_CODE":0,"CNTR_CODE":"IS","NAME_LATN":"Ísland","NUTS_NAME":"Ísland","MOUNT_TYPE":0,"URBN_TYPE":0,"COAST_TYPE":0,"NAME_ENGL":"Iceland","NAME_FREN":"Islande","ISO3_CODE":"ISL","SVRG_UN":"UN Member State","CAPT":"Reykjavík","EU_STAT":"F","EFTA_STAT":"T","CC_STAT":"F","NAME_GERM":"Island"},"id":"IS"},{"arcs":[[[-206,240]],[[241]],[[242]],[[243]],[[244]],[[245]],[[246]],[[247]],[[248]],[[249]],[[250]],[[251]],[[252]]],"type":"MultiPolygon","properties":{"NUTS_ID":"PT","LEVL_CODE":0,"CNTR_CODE":"PT","NAME_LATN":"Portugal","NUTS_NAME":"Portugal","MOUNT_TYPE":0,"URBN_TYPE":0,"COAST_TYPE":0,"NAME_ENGL":"Portugal","NAME_FREN":"Portugal","ISO3_CODE":"PRT","SVRG_UN":"UN Member State","CAPT":"Lisbon","EU_STAT":"T","EFTA_STAT":"F","CC_STAT":"F","NAME_GERM":"Portugal"},"id":"PT"},{"arcs":[[253,-73,-79,254,-46,255]],"type":"Polygon","properties":{"NUTS_ID":"RO","LEVL_CODE":0,"CNTR_CODE":"RO","NAME_LATN":"România","NUTS_NAME":"România","MOUNT_TYPE":0,"URBN_TYPE":0,"COAST_TYPE":0,"NAME_ENGL":"Romania","NAME_FREN":"Roumanie","ISO3_CODE":"ROU","SVRG_UN":"UN Member State","CAPT":"Bucharest","EU_STAT":"T","EFTA_STAT":"F","CC_STAT":"F","NAME_GERM":"Rumänien"},"id":"RO"},{"arcs":[[-255,-78,256,257,258,259,-25,-47]],"type":"Polygon","properties":{"NUTS_ID":"RS","LEVL_CODE":0,"CNTR_CODE":"RS","NAME_LATN":"Serbia","NUTS_NAME":"Srbija/Сpбија","MOUNT_TYPE":0,"URBN_TYPE":0,"COAST_TYPE":0,"NAME_ENGL":"Serbia","NAME_FREN":"Serbie","ISO3_CODE":"SRB","SVRG_UN":"UN Member State","CAPT":"Belgrade","EU_STAT":"F","EFTA_STAT":"F","CC_STAT":"T","NAME_GERM":"Serbien"},"id":"RS"},{"arcs":[[[260,261,-222]],[[262]],[[263]],[[264]],[[265]],[[266]],[[267]],[[268]],[[269]],[[270]],[[271]],[[272]],[[273]]],"type":"MultiPolygon","properties":{"NUTS_ID":"SE","LEVL_CODE":0,"CNTR_CODE":"SE","NAME_LATN":"Sverige","NUTS_NAME":"Sverige","MOUNT_TYPE":0,"URBN_TYPE":0,"COAST_TYPE":0,"NAME_ENGL":"Sweden","NAME_FREN":"Suède","ISO3_CODE":"SWE","SVRG_UN":"UN Member State","CAPT":"Stockholm","EU_STAT":"T","EFTA_STAT":"F","CC_STAT":"F","NAME_GERM":"Schweden"},"id":"SE"},{"arcs":[[-48,-27,274,275,-59]],"type":"Polygon","properties":{"NUTS_ID":"SI","LEVL_CODE":0,"CNTR_CODE":"SI","NAME_LATN":"Slovenija","NUTS_NAME":"Slovenija","MOUNT_TYPE":0,"URBN_TYPE":0,"COAST_TYPE":0,"NAME_ENGL":"Slovenia","NAME_FREN":"Slovénie","ISO3_CODE":"SVN","SVRG_UN":"UN Member State","CAPT":"Ljubljana","EU_STAT":"T","EFTA_STAT":"F","CC_STAT":"F","NAME_GERM":"Slowenien"},"id":"SI"},{"arcs":[[276,277,-44,-50,-58,-87,278]],"type":"Polygon","properties":{"NUTS_ID":"SK","LEVL_CODE":0,"CNTR_CODE":"SK","NAME_LATN":"Slovensko","NUTS_NAME":"Slovensko","MOUNT_TYPE":0,"URBN_TYPE":0,"COAST_TYPE":0,"NAME_ENGL":"Slovakia","NAME_FREN":"Slovaquie","ISO3_CODE":"SVK","SVRG_UN":"UN Member State","CAPT":"Bratislava","EU_STAT":"T","EFTA_STAT":"F","CC_STAT":"F","NAME_GERM":"Slowakei"},"id":"SK"},{"arcs":[[[279]],[[280,-134,-75]],[[281]],[[282]],[[283]],[[284]],[[285]],[[286]],[[287]],[[288]],[[289]]],"type":"MultiPolygon","properties":{"NUTS_ID":"TR","LEVL_CODE":0,"CNTR_CODE":"TR","NAME_LATN":"Türkiye","NUTS_NAME":"Türkiye","MOUNT_TYPE":0,"URBN_TYPE":0,"COAST_TYPE":0,"NAME_ENGL":"Türkiye","NAME_FREN":"Turquie","ISO3_CODE":"TUR","SVRG_UN":"UN Member State","CAPT":"Ankara","EU_STAT":"F","EFTA_STAT":"F","CC_STAT":"T","NAME_GERM":"Türkei"},"id":"TR"},{"arcs":[[[290]],[[291,-198,292]],[[293]],[[294]],[[295]],[[296]],[[297]],[[298]],[[299]],[[300]],[[301]],[[302]],[[303]],[[304]],[[305]],[[306]],[[307]],[[308]],[[309]],[[310]],[[311]],[[312]],[[313]],[[314]],[[315]]],"type":"MultiPolygon","properties":{"NUTS_ID":"UK","LEVL_CODE":0,"CNTR_CODE":"UK","NAME_LATN":"United Kingdom","NUTS_NAME":"United Kingdom","MOUNT_TYPE":0,"URBN_TYPE":0,"COAST_TYPE":0,"NAME_ENGL":"United Kingdom","NAME_FREN":"Royaume-Uni","ISO3_CODE":"GBR","SVRG_UN":"UN Member State","CAPT":"London","EU_STAT":"F","EFTA_STAT":"F","CC_STAT":"F","NAME_GERM":"Vereinigtes Königreich"},"id":"UK"},{"arcs":[[[-223,-262,316]],[[317]],[[318]],[[319]],[[320]],[[321]],[[322]],[[323]],[[324]],[[325]],[[326]],[[327]],[[328]],[[329]],[[330]],[[331]],[[332]],[[333]],[[334]],[[335]],[[336]],[[337]],[[338]],[[339]],[[340]],[[341]],[[342]],[[343]],[[344]],[[345]],[[346]],[[347]],[[348]],[[349]],[[350]],[[351]],[[352]],[[353]],[[354]],[[355]],[[356]],[[357]],[[358]],[[359]],[[360]],[[361]],[[362]],[[363]],[[364]],[[365]],[[366]],[[367]],[[368]],[[369]],[[370]],[[371]],[[372]],[[373]],[[374]]],"type":"MultiPolygon","properties":{"NUTS_ID":"NO","LEVL_CODE":0,"CNTR_CODE":"NO","NAME_LATN":"Norge","NUTS_NAME":"Norge","MOUNT_TYPE":0,"URBN_TYPE":0,"COAST_TYPE":0,"NAME_ENGL":"Norway","NAME_FREN":"Norvège","ISO3_CODE":"NOR","SVRG_UN":"UN Member State","CAPT":"Oslo","EU_STAT":"F","EFTA_STAT":"T","CC_STAT":"F","NAME_GERM":"Norwegen"},"id":"NO"},{"arcs":[[[-60,-276,375,-6,-82],[376],[377]],[[378]],[[379]],[[380]],[[381]],[[382]],[[383]],[[384]],[[385]],[[386]],[[387]],[[388]],[[389]],[[390]]],"type":"MultiPolygon","properties":{"NUTS_ID":"IT","LEVL_CODE":0,"CNTR_CODE":"IT","NAME_LATN":"Italia","NUTS_NAME":"Italia","MOUNT_TYPE":0,"URBN_TYPE":0,"COAST_TYPE":0,"NAME_ENGL":"Italy","NAME_FREN":"Italie","ISO3_CODE":"ITA","SVRG_UN":"UN Member State","CAPT":"Rome","EU_STAT":"T","EFTA_STAT":"F","CC_STAT":"F","NAME_GERM":"Italien"},"id":"IT"},{"arcs":[[-81,-62]],"type":"Polygon","properties":{"NUTS_ID":"LI","LEVL_CODE":0,"CNTR_CODE":"LI","NAME_LATN":"Liechtenstein","NUTS_NAME":"Liechtenstein","MOUNT_TYPE":0,"URBN_TYPE":0,"COAST_TYPE":0,"NAME_ENGL":"Liechtenstein","NAME_FREN":"Liechtenstein","ISO3_CODE":"LIE","SVRG_UN":"UN Member State","CAPT":"Vaduz","EU_STAT":"F","EFTA_STAT":"T","CC_STAT":"F","NAME_GERM":"Liechtenstein"},"id":"LI"},{"arcs":[[391,392,393,394,395]],"type":"Polygon","properties":{"NUTS_ID":"LT","LEVL_CODE":0,"CNTR_CODE":"LT","NAME_LATN":"Lietuva","NUTS_NAME":"Lietuva","MOUNT_TYPE":0,"URBN_TYPE":0,"COAST_TYPE":0,"NAME_ENGL":"Lithuania","NAME_FREN":"Lituanie","ISO3_CODE":"LTU","SVRG_UN":"UN Member State","CAPT":"Vilnius","EU_STAT":"T","EFTA_STAT":"F","CC_STAT":"F","NAME_GERM":"Litauen"},"id":"LT"},{"arcs":[[-94,-3,-68]],"type":"Polygon","properties":{"NUTS_ID":"LU","LEVL_CODE":0,"CNTR_CODE":"LU","NAME_LATN":"Luxembourg","NUTS_NAME":"Luxembourg","MOUNT_TYPE":0,"URBN_TYPE":0,"COAST_TYPE":0,"NAME_ENGL":"Luxembourg","NAME_FREN":"Luxembourg","ISO3_CODE":"LUX","SVRG_UN":"UN Member State","CAPT":"Luxembourg","EU_STAT":"T","EFTA_STAT":"F","CC_STAT":"F","NAME_GERM":"Luxemburg"},"id":"LU"},{"arcs":[[396,-392,-396,397,-125]],"type":"Polygon","properties":{"NUTS_ID":"LV","LEVL_CODE":0,"CNTR_CODE":"LV","NAME_LATN":"Latvija","NUTS_NAME":"Latvija","MOUNT_TYPE":0,"URBN_TYPE":0,"COAST_TYPE":0,"NAME_ENGL":"Latvia","NAME_FREN":"Lettonie","ISO3_CODE":"LVA","SVRG_UN":"UN Member State","CAPT":"Riga","EU_STAT":"T","EFTA_STAT":"F","CC_STAT":"F","NAME_GERM":"Lettland"},"id":"LV"},{"arcs":[[-259,398,-51,-56,399,-28,400]],"type":"Polygon","properties":{"NUTS_ID":"ME","LEVL_CODE":0,"CNTR_CODE":"ME","NAME_LATN":"Crna Gora","NUTS_NAME":"Црна Гора","MOUNT_TYPE":0,"URBN_TYPE":0,"COAST_TYPE":0,"NAME_ENGL":"Montenegro","NAME_FREN":"Monténégro","ISO3_CODE":"MNE","SVRG_UN":"UN Member State","CAPT":"Podgorica","EU_STAT":"F","EFTA_STAT":"F","CC_STAT":"T","NAME_GERM":"Montenegro"},"id":"ME"},{"arcs":[[-77,-133,-53,401,-257]],"type":"Polygon","properties":{"NUTS_ID":"MK","LEVL_CODE":0,"CNTR_CODE":"MK","NAME_LATN":"Severna Makedonija","NUTS_NAME":"Северна Македонија","MOUNT_TYPE":0,"URBN_TYPE":0,"COAST_TYPE":0,"NAME_ENGL":"North Macedonia","NAME_FREN":"Macédoine du Nord","ISO3_CODE":"MKD","SVRG_UN":"UN Member State","CAPT":"Skopje","EU_STAT":"F","EFTA_STAT":"F","CC_STAT":"T","NAME_GERM":"Nordmazedonien"},"id":"MK"},{"arcs":[[[402]],[[403]]],"type":"MultiPolygon","properties":{"NUTS_ID":"MT","LEVL_CODE":0,"CNTR_CODE":"MT","NAME_LATN":"Malta","NUTS_NAME":"Malta","MOUNT_TYPE":0,"URBN_TYPE":0,"COAST_TYPE":0,"NAME_ENGL":"Malta","NAME_FREN":"Malte","ISO3_CODE":"MLT","SVRG_UN":"UN Member State","CAPT":"Valletta","EU_STAT":"T","EFTA_STAT":"F","CC_STAT":"F","NAME_GERM":"Malta"},"id":"MT"},{"arcs":[[[404,-95,-66,-72,405]],[[-70,406]],[[407]],[[408]],[[409]]],"type":"MultiPolygon","properties":{"NUTS_ID":"NL","LEVL_CODE":0,"CNTR_CODE":"NL","NAME_LATN":"Nederland","NUTS_NAME":"Nederland","MOUNT_TYPE":0,"URBN_TYPE":0,"COAST_TYPE":0,"NAME_ENGL":"Netherlands","NAME_FREN":"Pays-Bas","ISO3_CODE":"NLD","SVRG_UN":"UN Member State","CAPT":"Amsterdam","EU_STAT":"T","EFTA_STAT":"F","CC_STAT":"F","NAME_GERM":"Niederlande"},"id":"NL"},{"arcs":[[410,-394,411,-277,-279,-86,-93,412,-91,413]],"type":"Polygon","properties":{"NUTS_ID":"PL","LEVL_CODE":0,"CNTR_CODE":"PL","NAME_LATN":"Polska","NUTS_NAME":"Polska","MOUNT_TYPE":0,"URBN_TYPE":0,"COAST_TYPE":0,"NAME_ENGL":"Poland","NAME_FREN":"Pologne","ISO3_CODE":"POL","SVRG_UN":"UN Member State","CAPT":"Warsaw","EU_STAT":"T","EFTA_STAT":"F","CC_STAT":"F","NAME_GERM":"Polen"},"id":"PL"}]}}}